{
"type": "FeatureCollection",
"name": "slope_banjarnegara",
"crs": { "type": "name", "properties": { "name": "urn:ogc:def:crs:OGC:1.3:CRS84" } },
"features": [
{ "type": "Feature", "properties": { "kelas_slope": 1, "count": 323953, "kategori": "0 - 8% (Datar)", "skor": 100, "warna": "#1a9850" }, "geometry": { "type": "Polygon", "coordinates": [ [ [ 109.911749620932653, -7.19927834999067 ], [ 109.913905577614528, -7.19927834999067 ], [ 109.913905577614528, -7.197661382479255 ], [ 109.914444566785008, -7.197661382479255 ], [ 109.914983555955473, -7.195505425797368 ], [ 109.915522545125953, -7.195505425797368 ], [ 109.916600523466897, -7.193888458285953 ], [ 109.917678501807842, -7.193888458285953 ], [ 109.917678501807842, -7.191193512433594 ], [ 109.917139512637362, -7.191193512433594 ], [ 109.917139512637362, -7.191732501604066 ], [ 109.916061534296418, -7.191732501604066 ], [ 109.915522545125953, -7.19281047994501 ], [ 109.913905577614528, -7.19281047994501 ], [ 109.913905577614528, -7.193349469115481 ], [ 109.913366588444063, -7.193349469115481 ], [ 109.913366588444063, -7.194427447456424 ], [ 109.912288610103118, -7.194427447456424 ], [ 109.911749620932653, -7.195505425797368 ], [ 109.910132653421229, -7.195505425797368 ], [ 109.910132653421229, -7.194966436626896 ], [ 109.909054675080284, -7.194966436626896 ], [ 109.909054675080284, -7.195505425797368 ], [ 109.906898718398395, -7.196044414967839 ], [ 109.906898718398395, -7.196583404138312 ], [ 109.903664783375575, -7.196044414967839 ], [ 109.903125794205096, -7.194966436626896 ], [ 109.901508826693686, -7.194966436626896 ], [ 109.901508826693686, -7.194427447456424 ], [ 109.900430848352741, -7.194427447456424 ], [ 109.900430848352741, -7.19281047994501 ], [ 109.899352870011796, -7.192271490774537 ], [ 109.899352870011796, -7.191193512433594 ], [ 109.898813880841331, -7.191193512433594 ], [ 109.898813880841331, -7.189576544922179 ], [ 109.897735902500386, -7.189576544922179 ], [ 109.896657924159442, -7.187420588240292 ], [ 109.896118934988962, -7.187420588240292 ], [ 109.896118934988962, -7.18688159906982 ], [ 109.895040956648018, -7.18688159906982 ], [ 109.893962978307087, -7.185264631558406 ], [ 109.893423989136608, -7.185264631558406 ], [ 109.893423989136608, -7.184186653217462 ], [ 109.892346010795663, -7.18364766404699 ], [ 109.891807021625198, -7.182569685706047 ], [ 109.891268032454718, -7.182569685706047 ], [ 109.890729043284253, -7.181491707365104 ], [ 109.889112075772829, -7.181491707365104 ], [ 109.888573086602364, -7.18041372902416 ], [ 109.886956119090954, -7.18041372902416 ], [ 109.886956119090954, -7.178796761512745 ], [ 109.886417129920474, -7.178796761512745 ], [ 109.886417129920474, -7.18041372902416 ], [ 109.885878140750009, -7.18041372902416 ], [ 109.885878140750009, -7.181491707365104 ], [ 109.885339151579529, -7.181491707365104 ], [ 109.885339151579529, -7.182030696535575 ], [ 109.884261173238585, -7.182569685706047 ], [ 109.88318319489764, -7.184186653217462 ], [ 109.881027238215765, -7.184186653217462 ], [ 109.881027238215765, -7.185264631558406 ], [ 109.88156622738623, -7.185264631558406 ], [ 109.88156622738623, -7.18688159906982 ], [ 109.88210521655671, -7.18688159906982 ], [ 109.88156622738623, -7.189037555751708 ], [ 109.880488249045285, -7.189037555751708 ], [ 109.880488249045285, -7.189576544922179 ], [ 109.879410270704341, -7.189576544922179 ], [ 109.879410270704341, -7.190115534092651 ], [ 109.878332292363396, -7.190115534092651 ], [ 109.878332292363396, -7.190654523263122 ], [ 109.877254314022451, -7.190654523263122 ], [ 109.877254314022451, -7.191193512433594 ], [ 109.876176335681521, -7.190654523263122 ], [ 109.876176335681521, -7.189576544922179 ], [ 109.875637346511041, -7.189576544922179 ], [ 109.875098357340576, -7.187420588240292 ], [ 109.874559368170097, -7.187420588240292 ], [ 109.874020378999631, -7.186342609899349 ], [ 109.869708465635853, -7.18688159906982 ], [ 109.869708465635853, -7.187420588240292 ], [ 109.866474530613019, -7.187420588240292 ], [ 109.866474530613019, -7.18688159906982 ], [ 109.863240595590199, -7.186342609899349 ], [ 109.863240595590199, -7.185803620728877 ], [ 109.861084638908309, -7.185264631558406 ], [ 109.861084638908309, -7.184725642387933 ], [ 109.85892868222642, -7.184186653217462 ], [ 109.85838969305594, -7.183108674876518 ], [ 109.856772725544531, -7.183108674876518 ], [ 109.856772725544531, -7.182569685706047 ], [ 109.855694747203586, -7.182569685706047 ], [ 109.854616768862641, -7.180952718194631 ], [ 109.853538790521696, -7.180952718194631 ], [ 109.853538790521696, -7.18041372902416 ], [ 109.851382833839821, -7.179874739853688 ], [ 109.851382833839821, -7.179335750683216 ], [ 109.850843844669342, -7.179335750683216 ], [ 109.850304855498877, -7.178257772342273 ], [ 109.849226877157932, -7.178257772342273 ], [ 109.849226877157932, -7.177718783171802 ], [ 109.848687887987452, -7.177718783171802 ], [ 109.848687887987452, -7.178257772342273 ], [ 109.847609909646508, -7.177718783171802 ], [ 109.847609909646508, -7.178257772342273 ], [ 109.847070920476042, -7.178257772342273 ], [ 109.847070920476042, -7.179874739853688 ], [ 109.845453952964633, -7.180952718194631 ], [ 109.845992942135098, -7.183108674876518 ], [ 109.844914963794153, -7.183108674876518 ], [ 109.844375974623688, -7.184186653217462 ], [ 109.843297996282743, -7.184186653217462 ], [ 109.843297996282743, -7.18364766404699 ], [ 109.842759007112264, -7.18364766404699 ], [ 109.842759007112264, -7.185264631558406 ], [ 109.842220017941798, -7.185264631558406 ], [ 109.842220017941798, -7.186342609899349 ], [ 109.841681028771319, -7.186342609899349 ], [ 109.841681028771319, -7.18688159906982 ], [ 109.839525072089444, -7.187420588240292 ], [ 109.838986082918964, -7.188498566581235 ], [ 109.837369115407554, -7.188498566581235 ], [ 109.837369115407554, -7.189037555751708 ], [ 109.834674169555186, -7.189037555751708 ], [ 109.834674169555186, -7.189576544922179 ], [ 109.833596191214255, -7.189576544922179 ], [ 109.833596191214255, -7.190115534092651 ], [ 109.833057202043776, -7.190115534092651 ], [ 109.83251821287331, -7.189037555751708 ], [ 109.831440234532366, -7.189037555751708 ], [ 109.831440234532366, -7.188498566581235 ], [ 109.830362256191421, -7.188498566581235 ], [ 109.830362256191421, -7.187959577410764 ], [ 109.829284277850476, -7.187959577410764 ], [ 109.829284277850476, -7.187420588240292 ], [ 109.828206299509532, -7.18688159906982 ], [ 109.828206299509532, -7.185264631558406 ], [ 109.827128321168587, -7.184725642387933 ], [ 109.827128321168587, -7.18364766404699 ], [ 109.826050342827642, -7.183108674876518 ], [ 109.826050342827642, -7.182569685706047 ], [ 109.824433375316232, -7.182569685706047 ], [ 109.824433375316232, -7.182030696535575 ], [ 109.823355396975288, -7.182030696535575 ], [ 109.822816407804808, -7.180952718194631 ], [ 109.821738429463878, -7.180952718194631 ], [ 109.821199440293398, -7.179874739853688 ], [ 109.820121461952454, -7.179874739853688 ], [ 109.820121461952454, -7.179335750683216 ], [ 109.819043483611509, -7.179335750683216 ], [ 109.818504494441044, -7.18041372902416 ], [ 109.817426516100099, -7.18041372902416 ], [ 109.817426516100099, -7.180952718194631 ], [ 109.815270559418209, -7.180952718194631 ], [ 109.815270559418209, -7.18041372902416 ], [ 109.81311460273632, -7.179874739853688 ], [ 109.81311460273632, -7.179335750683216 ], [ 109.812036624395375, -7.179335750683216 ], [ 109.81149763522491, -7.178257772342273 ], [ 109.810958646054431, -7.178257772342273 ], [ 109.810958646054431, -7.177718783171802 ], [ 109.8098806677135, -7.177718783171802 ], [ 109.809341678543021, -7.176640804830858 ], [ 109.808263700202076, -7.176640804830858 ], [ 109.807724711031611, -7.175562826489914 ], [ 109.806646732690666, -7.175562826489914 ], [ 109.806107743520187, -7.174484848148971 ], [ 109.805029765179242, -7.174484848148971 ], [ 109.803951786838297, -7.172867880637556 ], [ 109.801795830156422, -7.172328891467084 ], [ 109.801795830156422, -7.171789902296612 ], [ 109.799639873474533, -7.171789902296612 ], [ 109.799639873474533, -7.171250913126141 ], [ 109.797483916792643, -7.171250913126141 ], [ 109.796944927622178, -7.172328891467084 ], [ 109.795327960110754, -7.173406869808027 ], [ 109.795327960110754, -7.1739458589785 ], [ 109.794249981769809, -7.1739458589785 ], [ 109.794249981769809, -7.174484848148971 ], [ 109.793172003428865, -7.174484848148971 ], [ 109.793172003428865, -7.175023837319443 ], [ 109.791555035917455, -7.175023837319443 ], [ 109.791555035917455, -7.175562826489914 ], [ 109.79047705757651, -7.175562826489914 ], [ 109.79047705757651, -7.176101815660386 ], [ 109.787243122553676, -7.176640804830858 ], [ 109.787243122553676, -7.177179794001329 ], [ 109.785626155042266, -7.177179794001329 ], [ 109.785626155042266, -7.177718783171802 ], [ 109.782931209189911, -7.177718783171802 ], [ 109.782931209189911, -7.178257772342273 ], [ 109.781853230848967, -7.178257772342273 ], [ 109.781853230848967, -7.178796761512745 ], [ 109.778080306655667, -7.178796761512745 ], [ 109.778080306655667, -7.179335750683216 ], [ 109.776463339144243, -7.179335750683216 ], [ 109.776463339144243, -7.179874739853688 ], [ 109.774307382462354, -7.179874739853688 ], [ 109.774307382462354, -7.18041372902416 ], [ 109.76945647992811, -7.18041372902416 ], [ 109.76945647992811, -7.179874739853688 ], [ 109.767300523246234, -7.179874739853688 ], [ 109.767300523246234, -7.179335750683216 ], [ 109.76568355573481, -7.179335750683216 ], [ 109.76568355573481, -7.178796761512745 ], [ 109.763527599052921, -7.178257772342273 ], [ 109.762449620711976, -7.176640804830858 ], [ 109.760832653200566, -7.176640804830858 ], [ 109.760832653200566, -7.177179794001329 ], [ 109.759754674859622, -7.177179794001329 ], [ 109.759754674859622, -7.177718783171802 ], [ 109.758676696518677, -7.177718783171802 ], [ 109.758137707348212, -7.178796761512745 ], [ 109.755981750666322, -7.178796761512745 ], [ 109.754903772325378, -7.18041372902416 ], [ 109.753286804813968, -7.18041372902416 ], [ 109.753286804813968, -7.179874739853688 ], [ 109.752208826473023, -7.179874739853688 ], [ 109.752208826473023, -7.179335750683216 ], [ 109.751669837302543, -7.179335750683216 ], [ 109.751669837302543, -7.18041372902416 ], [ 109.750591858961599, -7.18041372902416 ], [ 109.750052869791134, -7.181491707365104 ], [ 109.748974891450189, -7.181491707365104 ], [ 109.748974891450189, -7.182030696535575 ], [ 109.747357923938779, -7.182030696535575 ], [ 109.747357923938779, -7.182569685706047 ], [ 109.745201967256889, -7.182569685706047 ], [ 109.745201967256889, -7.184186653217462 ], [ 109.744123988915945, -7.184186653217462 ], [ 109.744123988915945, -7.185803620728877 ], [ 109.745201967256889, -7.186342609899349 ], [ 109.745201967256889, -7.189037555751708 ], [ 109.74466297808641, -7.189037555751708 ], [ 109.74466297808641, -7.189576544922179 ], [ 109.743046010575, -7.190654523263122 ], [ 109.742507021404535, -7.191732501604066 ], [ 109.74142904306359, -7.191732501604066 ], [ 109.740890053893111, -7.19281047994501 ], [ 109.739812075552166, -7.19281047994501 ], [ 109.739273086381701, -7.193888458285953 ], [ 109.738195108040756, -7.193888458285953 ], [ 109.738195108040756, -7.194427447456424 ], [ 109.736578140529346, -7.194427447456424 ], [ 109.736578140529346, -7.194966436626896 ], [ 109.735500162188401, -7.194966436626896 ], [ 109.735500162188401, -7.195505425797368 ], [ 109.733883194676977, -7.195505425797368 ], [ 109.733344205506512, -7.196583404138312 ], [ 109.732266227165567, -7.196583404138312 ], [ 109.732266227165567, -7.197661382479255 ], [ 109.731727237995088, -7.197661382479255 ], [ 109.730649259654157, -7.19927834999067 ], [ 109.729032292142733, -7.200356328331614 ], [ 109.729032292142733, -7.200895317502085 ], [ 109.727954313801789, -7.200895317502085 ], [ 109.727415324631323, -7.201973295843028 ], [ 109.725259367949434, -7.201973295843028 ], [ 109.725259367949434, -7.201434306672557 ], [ 109.724181389608489, -7.201434306672557 ], [ 109.724181389608489, -7.200895317502085 ], [ 109.723103411267545, -7.200895317502085 ], [ 109.723103411267545, -7.200356328331614 ], [ 109.7220254329266, -7.200356328331614 ], [ 109.7220254329266, -7.199817339161141 ], [ 109.717713519562835, -7.199817339161141 ], [ 109.717713519562835, -7.19927834999067 ], [ 109.715557562880946, -7.19927834999067 ], [ 109.715018573710466, -7.198200371649726 ], [ 109.711784638687647, -7.198200371649726 ], [ 109.711784638687647, -7.198739360820198 ], [ 109.711245649517167, -7.198739360820198 ], [ 109.711245649517167, -7.19927834999067 ], [ 109.710167671176222, -7.19927834999067 ], [ 109.710167671176222, -7.199817339161141 ], [ 109.707472725323868, -7.199817339161141 ], [ 109.707472725323868, -7.19927834999067 ], [ 109.706394746982923, -7.19927834999067 ], [ 109.706394746982923, -7.198200371649726 ], [ 109.705855757812458, -7.198200371649726 ], [ 109.705855757812458, -7.197661382479255 ], [ 109.705316768641978, -7.197661382479255 ], [ 109.704777779471513, -7.195505425797368 ], [ 109.69399799606208, -7.196044414967839 ], [ 109.693459006891601, -7.194966436626896 ], [ 109.689686082698302, -7.194966436626896 ], [ 109.689686082698302, -7.194427447456424 ], [ 109.690764061039246, -7.194427447456424 ], [ 109.690225071868767, -7.192271490774537 ], [ 109.689686082698302, -7.192271490774537 ], [ 109.689686082698302, -7.191732501604066 ], [ 109.688608104357357, -7.191732501604066 ], [ 109.688069115186892, -7.190654523263122 ], [ 109.686991136845947, -7.190115534092651 ], [ 109.686991136845947, -7.188498566581235 ], [ 109.686452147675467, -7.188498566581235 ], [ 109.686452147675467, -7.187420588240292 ], [ 109.685913158505002, -7.187420588240292 ], [ 109.685913158505002, -7.18688159906982 ], [ 109.684835180164058, -7.18688159906982 ], [ 109.684835180164058, -7.186342609899349 ], [ 109.683218212652648, -7.185264631558406 ], [ 109.683218212652648, -7.184186653217462 ], [ 109.682679223482168, -7.184186653217462 ], [ 109.682679223482168, -7.18364766404699 ], [ 109.683218212652648, -7.18364766404699 ], [ 109.683218212652648, -7.182030696535575 ], [ 109.682140234311703, -7.181491707365104 ], [ 109.682140234311703, -7.179874739853688 ], [ 109.682679223482168, -7.179874739853688 ], [ 109.682679223482168, -7.178257772342273 ], [ 109.683218212652648, -7.178257772342273 ], [ 109.683218212652648, -7.177718783171802 ], [ 109.681601245141223, -7.176640804830858 ], [ 109.681601245141223, -7.175562826489914 ], [ 109.682140234311703, -7.175562826489914 ], [ 109.682140234311703, -7.175023837319443 ], [ 109.681601245141223, -7.175023837319443 ], [ 109.681601245141223, -7.1739458589785 ], [ 109.682140234311703, -7.1739458589785 ], [ 109.682140234311703, -7.173406869808027 ], [ 109.681062255970758, -7.173406869808027 ], [ 109.681062255970758, -7.172867880637556 ], [ 109.679445288459334, -7.172867880637556 ], [ 109.679445288459334, -7.172328891467084 ], [ 109.675672364266035, -7.172328891467084 ], [ 109.675672364266035, -7.172867880637556 ], [ 109.673516407584145, -7.173406869808027 ], [ 109.67297741841368, -7.174484848148971 ], [ 109.672438429243201, -7.174484848148971 ], [ 109.672438429243201, -7.176640804830858 ], [ 109.671360450902256, -7.177179794001329 ], [ 109.671360450902256, -7.177718783171802 ], [ 109.669743483390846, -7.177718783171802 ], [ 109.669743483390846, -7.178257772342273 ], [ 109.668665505049901, -7.178257772342273 ], [ 109.668665505049901, -7.177718783171802 ], [ 109.664892580856602, -7.177718783171802 ], [ 109.664892580856602, -7.178257772342273 ], [ 109.660041678322358, -7.177718783171802 ], [ 109.659502689151878, -7.176640804830858 ], [ 109.656268754129059, -7.176101815660386 ], [ 109.656268754129059, -7.175562826489914 ], [ 109.655190775788114, -7.175562826489914 ], [ 109.655190775788114, -7.175023837319443 ], [ 109.651417851594815, -7.175023837319443 ], [ 109.651417851594815, -7.174484848148971 ], [ 109.650878862424335, -7.174484848148971 ], [ 109.650878862424335, -7.173406869808027 ], [ 109.65033987325387, -7.173406869808027 ], [ 109.65033987325387, -7.172867880637556 ], [ 109.649261894912925, -7.172867880637556 ], [ 109.649261894912925, -7.172328891467084 ], [ 109.645488970719626, -7.172328891467084 ], [ 109.645488970719626, -7.172867880637556 ], [ 109.643333014037736, -7.172867880637556 ], [ 109.641716046526312, -7.176101815660386 ], [ 109.636326154821603, -7.176101815660386 ], [ 109.636326154821603, -7.176640804830858 ], [ 109.635248176480658, -7.176640804830858 ], [ 109.635248176480658, -7.177179794001329 ], [ 109.634709187310193, -7.177179794001329 ], [ 109.634709187310193, -7.178257772342273 ], [ 109.634170198139714, -7.178257772342273 ], [ 109.634170198139714, -7.179874739853688 ], [ 109.632553230628304, -7.180952718194631 ], [ 109.632553230628304, -7.183108674876518 ], [ 109.630397273946414, -7.184186653217462 ], [ 109.62931929560547, -7.187959577410764 ], [ 109.628241317264525, -7.188498566581235 ], [ 109.628241317264525, -7.189037555751708 ], [ 109.625007382241691, -7.189037555751708 ], [ 109.625007382241691, -7.190115534092651 ], [ 109.624468393071226, -7.190115534092651 ], [ 109.624468393071226, -7.193349469115481 ], [ 109.623929403900746, -7.193349469115481 ], [ 109.623929403900746, -7.196044414967839 ], [ 109.623390414730281, -7.196044414967839 ], [ 109.623390414730281, -7.197661382479255 ], [ 109.622312436389336, -7.198200371649726 ], [ 109.621773447218871, -7.19927834999067 ], [ 109.621234458048392, -7.19927834999067 ], [ 109.620695468877926, -7.200356328331614 ], [ 109.619617490536982, -7.200356328331614 ], [ 109.619617490536982, -7.200895317502085 ], [ 109.618539512196037, -7.200356328331614 ], [ 109.618539512196037, -7.200895317502085 ], [ 109.616383555514147, -7.200895317502085 ], [ 109.616383555514147, -7.201434306672557 ], [ 109.615844566343682, -7.201434306672557 ], [ 109.615844566343682, -7.2025122850135 ], [ 109.615305577173203, -7.2025122850135 ], [ 109.615305577173203, -7.204129252524916 ], [ 109.614227598832258, -7.204668241695387 ], [ 109.613688609661793, -7.20574622003633 ], [ 109.613149620491313, -7.20574622003633 ], [ 109.612610631320848, -7.207902176718217 ], [ 109.612071642150369, -7.207902176718217 ], [ 109.612071642150369, -7.210058133400104 ], [ 109.611532652979903, -7.210058133400104 ], [ 109.610993663809438, -7.211136111741047 ], [ 109.608298717957069, -7.211136111741047 ], [ 109.608298717957069, -7.211675100911519 ], [ 109.606681750445659, -7.211675100911519 ], [ 109.606681750445659, -7.211136111741047 ], [ 109.605603772104715, -7.211136111741047 ], [ 109.605064782934235, -7.210058133400104 ], [ 109.601291858740936, -7.208980155059161 ], [ 109.600213880399991, -7.207363187547745 ], [ 109.598596912888581, -7.207363187547745 ], [ 109.598596912888581, -7.206824198377274 ], [ 109.596440956206692, -7.206285209206802 ], [ 109.596440956206692, -7.20574622003633 ], [ 109.595901967036227, -7.20574622003633 ], [ 109.595901967036227, -7.207902176718217 ], [ 109.593207021183858, -7.207902176718217 ], [ 109.593207021183858, -7.207363187547745 ], [ 109.589973086161038, -7.206824198377274 ], [ 109.589973086161038, -7.207902176718217 ], [ 109.589434096990558, -7.207902176718217 ], [ 109.589434096990558, -7.211136111741047 ], [ 109.588356118649614, -7.211675100911519 ], [ 109.587817129479149, -7.213831057593406 ], [ 109.587278140308669, -7.213831057593406 ], [ 109.587278140308669, -7.214370046763878 ], [ 109.585661172797259, -7.215448025104821 ], [ 109.585122183626794, -7.216526003445765 ], [ 109.584583194456314, -7.216526003445765 ], [ 109.584583194456314, -7.217064992616236 ], [ 109.58350521611537, -7.217064992616236 ], [ 109.58350521611537, -7.217603981786708 ], [ 109.582427237774425, -7.21814297095718 ], [ 109.58188824860396, -7.219220949298123 ], [ 109.58134925943348, -7.219220949298123 ], [ 109.58134925943348, -7.219759938468595 ], [ 109.57973229192207, -7.220837916809538 ], [ 109.57973229192207, -7.22137690598001 ], [ 109.578654313581126, -7.22137690598001 ], [ 109.57811532441066, -7.222454884320953 ], [ 109.573264421876416, -7.222454884320953 ], [ 109.572725432705937, -7.22137690598001 ], [ 109.570569476024048, -7.220837916809538 ], [ 109.570569476024048, -7.22137690598001 ], [ 109.569491497683103, -7.22137690598001 ], [ 109.569491497683103, -7.221915895150482 ], [ 109.567335541001228, -7.221915895150482 ], [ 109.567335541001228, -7.222454884320953 ], [ 109.565179584319338, -7.222993873491425 ], [ 109.565179584319338, -7.224071851832369 ], [ 109.564101605978394, -7.224071851832369 ], [ 109.564101605978394, -7.22461084100284 ], [ 109.563562616807914, -7.22461084100284 ], [ 109.563562616807914, -7.225688819343784 ], [ 109.563023627637449, -7.225688819343784 ], [ 109.563023627637449, -7.227305786855199 ], [ 109.562484638466984, -7.227305786855199 ], [ 109.562484638466984, -7.228922754366614 ], [ 109.561945649296504, -7.228922754366614 ], [ 109.561945649296504, -7.230000732707557 ], [ 109.561406660126039, -7.230000732707557 ], [ 109.561406660126039, -7.230539721878029 ], [ 109.560328681785094, -7.230539721878029 ], [ 109.560328681785094, -7.231078711048501 ], [ 109.55925070344415, -7.231078711048501 ], [ 109.55925070344415, -7.230539721878029 ], [ 109.558172725103205, -7.230539721878029 ], [ 109.558172725103205, -7.231078711048501 ], [ 109.557633735932725, -7.231078711048501 ], [ 109.557633735932725, -7.230539721878029 ], [ 109.553321822568961, -7.230539721878029 ], [ 109.553321822568961, -7.231078711048501 ], [ 109.552243844228016, -7.231078711048501 ], [ 109.551165865887072, -7.233234667730388 ], [ 109.550087887546127, -7.233234667730388 ], [ 109.549548898375662, -7.234312646071331 ], [ 109.548470920034717, -7.234851635241803 ], [ 109.548470920034717, -7.235390624412275 ], [ 109.547392941693772, -7.235390624412275 ], [ 109.547392941693772, -7.235929613582746 ], [ 109.546853952523293, -7.235929613582746 ], [ 109.546314963352827, -7.23700759192369 ], [ 109.544697995841418, -7.238085570264633 ], [ 109.544697995841418, -7.239163548605577 ], [ 109.544159006670938, -7.239163548605577 ], [ 109.544159006670938, -7.24024152694652 ], [ 109.543620017500473, -7.24024152694652 ], [ 109.543620017500473, -7.240780516116992 ], [ 109.541464060818583, -7.241319505287463 ], [ 109.541464060818583, -7.241858494457935 ], [ 109.540386082477639, -7.242397483628407 ], [ 109.540386082477639, -7.24347546196935 ], [ 109.539847093307159, -7.24347546196935 ], [ 109.539847093307159, -7.244014451139822 ], [ 109.538769114966215, -7.244014451139822 ], [ 109.538769114966215, -7.245092429480765 ], [ 109.539308104136694, -7.245092429480765 ], [ 109.540386082477639, -7.246709396992181 ], [ 109.541464060818583, -7.246709396992181 ], [ 109.542003049989049, -7.247787375333124 ], [ 109.542542039159528, -7.247787375333124 ], [ 109.542542039159528, -7.248865353674067 ], [ 109.543620017500473, -7.249404342844539 ], [ 109.544159006670938, -7.250482321185483 ], [ 109.545236985011883, -7.250482321185483 ], [ 109.546314963352827, -7.252099288696898 ], [ 109.547392941693772, -7.252099288696898 ], [ 109.547931930864237, -7.253177267037841 ], [ 109.549009909205182, -7.253716256208313 ], [ 109.549009909205182, -7.254794234549256 ], [ 109.549548898375662, -7.254794234549256 ], [ 109.549548898375662, -7.255333223719728 ], [ 109.550626876716606, -7.255333223719728 ], [ 109.550626876716606, -7.2558722128902 ], [ 109.552243844228016, -7.2558722128902 ], [ 109.552243844228016, -7.256411202060671 ], [ 109.554399800909906, -7.256950191231143 ], [ 109.554399800909906, -7.257489180401615 ], [ 109.55547777925085, -7.257489180401615 ], [ 109.556016768421316, -7.258567158742558 ], [ 109.558172725103205, -7.25910614791303 ], [ 109.55925070344415, -7.260723115424445 ], [ 109.560328681785094, -7.260723115424445 ], [ 109.56086767095556, -7.261801093765389 ], [ 109.563023627637449, -7.26234008293586 ], [ 109.563023627637449, -7.262879072106332 ], [ 109.566257562660283, -7.263418061276804 ], [ 109.566257562660283, -7.263957050447275 ], [ 109.568413519342172, -7.263957050447275 ], [ 109.568413519342172, -7.264496039617747 ], [ 109.569491497683103, -7.264496039617747 ], [ 109.569491497683103, -7.265035028788219 ], [ 109.570569476024048, -7.265574017958691 ], [ 109.570569476024048, -7.266651996299634 ], [ 109.572186443535472, -7.267729974640577 ], [ 109.572186443535472, -7.268807952981521 ], [ 109.573264421876416, -7.269346942151993 ], [ 109.573264421876416, -7.270424920492936 ], [ 109.574342400217361, -7.270963909663408 ], [ 109.574881389387826, -7.273119866345295 ], [ 109.575420378558292, -7.273119866345295 ], [ 109.575420378558292, -7.27797076887954 ], [ 109.575959367728771, -7.27797076887954 ], [ 109.575959367728771, -7.279587736390955 ], [ 109.576498356899236, -7.279587736390955 ], [ 109.576498356899236, -7.280126725561427 ], [ 109.577037346069716, -7.280126725561427 ], [ 109.577576335240181, -7.28120470390237 ], [ 109.578654313581126, -7.281743693072842 ], [ 109.578654313581126, -7.282821671413785 ], [ 109.579193302751605, -7.282821671413785 ], [ 109.579193302751605, -7.283899649754729 ], [ 109.57973229192207, -7.283899649754729 ], [ 109.57973229192207, -7.285516617266144 ], [ 109.58027128109255, -7.285516617266144 ], [ 109.58027128109255, -7.287133584777559 ], [ 109.580810270263015, -7.287133584777559 ], [ 109.580810270263015, -7.288211563118502 ], [ 109.58188824860396, -7.288750552288974 ], [ 109.582427237774425, -7.289828530629918 ], [ 109.582966226944905, -7.289828530629918 ], [ 109.58350521611537, -7.290906508970861 ], [ 109.584044205285849, -7.290906508970861 ], [ 109.584044205285849, -7.292523476482276 ], [ 109.584583194456314, -7.292523476482276 ], [ 109.584044205285849, -7.29360145482322 ], [ 109.582966226944905, -7.29360145482322 ], [ 109.582966226944905, -7.294140443993691 ], [ 109.582427237774425, -7.294140443993691 ], [ 109.582427237774425, -7.295218422334635 ], [ 109.58027128109255, -7.295218422334635 ], [ 109.58027128109255, -7.294679433164163 ], [ 109.578654313581126, -7.294679433164163 ], [ 109.578654313581126, -7.295218422334635 ], [ 109.577576335240181, -7.295218422334635 ], [ 109.577576335240181, -7.295757411505106 ], [ 109.575959367728771, -7.295757411505106 ], [ 109.575959367728771, -7.296296400675578 ], [ 109.574881389387826, -7.296835389846049 ], [ 109.574881389387826, -7.298452357357465 ], [ 109.575420378558292, -7.298452357357465 ], [ 109.575420378558292, -7.299530335698408 ], [ 109.574881389387826, -7.299530335698408 ], [ 109.574881389387826, -7.30006932486888 ], [ 109.573264421876416, -7.30006932486888 ], [ 109.573264421876416, -7.298991346527937 ], [ 109.572186443535472, -7.298991346527937 ], [ 109.572186443535472, -7.299530335698408 ], [ 109.569491497683103, -7.299530335698408 ], [ 109.569491497683103, -7.300608314039351 ], [ 109.568413519342172, -7.300608314039351 ], [ 109.568413519342172, -7.30006932486888 ], [ 109.567335541001228, -7.300608314039351 ], [ 109.567335541001228, -7.301686292380295 ], [ 109.566796551830748, -7.301686292380295 ], [ 109.566796551830748, -7.305459216573597 ], [ 109.567335541001228, -7.305459216573597 ], [ 109.567335541001228, -7.308693151596428 ], [ 109.567874530171693, -7.308693151596428 ], [ 109.567874530171693, -7.310310119107843 ], [ 109.568413519342172, -7.310310119107843 ], [ 109.568413519342172, -7.31246607578973 ], [ 109.568952508512638, -7.31246607578973 ], [ 109.568952508512638, -7.314083043301145 ], [ 109.567335541001228, -7.315161021642088 ], [ 109.567335541001228, -7.316238999983032 ], [ 109.565179584319338, -7.316238999983032 ], [ 109.565179584319338, -7.316777989153503 ], [ 109.563562616807914, -7.316777989153503 ], [ 109.563023627637449, -7.317855967494447 ], [ 109.562484638466984, -7.317855967494447 ], [ 109.562484638466984, -7.31893394583539 ], [ 109.563023627637449, -7.31893394583539 ], [ 109.563023627637449, -7.319472935005861 ], [ 109.564101605978394, -7.319472935005861 ], [ 109.564101605978394, -7.31893394583539 ], [ 109.564640595148859, -7.31893394583539 ], [ 109.564640595148859, -7.317855967494447 ], [ 109.565718573489804, -7.317855967494447 ], [ 109.565718573489804, -7.320011924176334 ], [ 109.565179584319338, -7.320011924176334 ], [ 109.565179584319338, -7.321089902517277 ], [ 109.564640595148859, -7.321089902517277 ], [ 109.564640595148859, -7.323245859199163 ], [ 109.565718573489804, -7.323784848369636 ], [ 109.565718573489804, -7.327557772562938 ], [ 109.565179584319338, -7.327557772562938 ], [ 109.565179584319338, -7.328096761733409 ], [ 109.563023627637449, -7.328096761733409 ], [ 109.563562616807914, -7.33133069675624 ], [ 109.563023627637449, -7.33133069675624 ], [ 109.562484638466984, -7.332408675097183 ], [ 109.561945649296504, -7.332408675097183 ], [ 109.561945649296504, -7.331869685926711 ], [ 109.558172725103205, -7.331869685926711 ], [ 109.558172725103205, -7.33133069675624 ], [ 109.55709474676226, -7.33133069675624 ], [ 109.55709474676226, -7.330791707585767 ], [ 109.554938790080371, -7.330791707585767 ], [ 109.554938790080371, -7.33133069675624 ], [ 109.550087887546127, -7.33133069675624 ], [ 109.550087887546127, -7.330252718415296 ], [ 109.549548898375662, -7.330252718415296 ], [ 109.549548898375662, -7.329713729244824 ], [ 109.547931930864237, -7.329713729244824 ], [ 109.547392941693772, -7.328635750903881 ], [ 109.546853952523293, -7.328635750903881 ], [ 109.546853952523293, -7.327557772562938 ], [ 109.546314963352827, -7.327557772562938 ], [ 109.546314963352827, -7.327018783392465 ], [ 109.544159006670938, -7.327018783392465 ], [ 109.544159006670938, -7.326479794221994 ], [ 109.543081028329993, -7.326479794221994 ], [ 109.543081028329993, -7.325940805051522 ], [ 109.541464060818583, -7.325940805051522 ], [ 109.541464060818583, -7.325401815881051 ], [ 109.539308104136694, -7.325401815881051 ], [ 109.539308104136694, -7.325940805051522 ], [ 109.538230125795749, -7.325940805051522 ], [ 109.537691136625284, -7.327018783392465 ], [ 109.537152147454805, -7.327018783392465 ], [ 109.537152147454805, -7.327557772562938 ], [ 109.53607416911386, -7.327557772562938 ], [ 109.53607416911386, -7.328096761733409 ], [ 109.53445720160245, -7.328096761733409 ], [ 109.53445720160245, -7.328635750903881 ], [ 109.533918212431971, -7.328635750903881 ], [ 109.533379223261505, -7.327557772562938 ], [ 109.532840234091026, -7.327557772562938 ], [ 109.532840234091026, -7.326479794221994 ], [ 109.530684277409151, -7.325940805051522 ], [ 109.530684277409151, -7.325401815881051 ], [ 109.530145288238671, -7.325401815881051 ], [ 109.529067309897727, -7.323784848369636 ], [ 109.527989331556782, -7.323784848369636 ], [ 109.527989331556782, -7.323245859199163 ], [ 109.527450342386317, -7.323245859199163 ], [ 109.527450342386317, -7.323784848369636 ], [ 109.526372364045372, -7.323784848369636 ], [ 109.526372364045372, -7.324323837540107 ], [ 109.525833374874907, -7.324323837540107 ], [ 109.525833374874907, -7.325401815881051 ], [ 109.525294385704427, -7.325401815881051 ], [ 109.525294385704427, -7.326479794221994 ], [ 109.524755396533962, -7.326479794221994 ], [ 109.524755396533962, -7.328635750903881 ], [ 109.524216407363483, -7.328635750903881 ], [ 109.524216407363483, -7.329713729244824 ], [ 109.523677418193017, -7.329713729244824 ], [ 109.523677418193017, -7.33133069675624 ], [ 109.523138429022538, -7.33133069675624 ], [ 109.522599439852073, -7.333486653438126 ], [ 109.522060450681593, -7.333486653438126 ], [ 109.522060450681593, -7.334564631779069 ], [ 109.521521461511128, -7.334564631779069 ], [ 109.520982472340648, -7.3377985668019 ], [ 109.520443483170183, -7.3377985668019 ], [ 109.519904493999718, -7.339954523483787 ], [ 109.519365504829238, -7.339954523483787 ], [ 109.519365504829238, -7.341571490995202 ], [ 109.518826515658773, -7.341571490995202 ], [ 109.518826515658773, -7.342649469336146 ], [ 109.518287526488294, -7.342649469336146 ], [ 109.518287526488294, -7.343727447677089 ], [ 109.518826515658773, -7.343727447677089 ], [ 109.518826515658773, -7.345344415188504 ], [ 109.519365504829238, -7.345344415188504 ], [ 109.519365504829238, -7.345883404358975 ], [ 109.520443483170183, -7.345883404358975 ], [ 109.520443483170183, -7.346422393529448 ], [ 109.521521461511128, -7.346422393529448 ], [ 109.522060450681593, -7.347500371870391 ], [ 109.522599439852073, -7.347500371870391 ], [ 109.522599439852073, -7.348578350211334 ], [ 109.523138429022538, -7.348578350211334 ], [ 109.523138429022538, -7.349117339381806 ], [ 109.524755396533962, -7.349117339381806 ], [ 109.525294385704427, -7.35019531772275 ], [ 109.525833374874907, -7.35019531772275 ], [ 109.525833374874907, -7.350734306893221 ], [ 109.526911353215837, -7.350734306893221 ], [ 109.526911353215837, -7.351273296063693 ], [ 109.527450342386317, -7.351273296063693 ], [ 109.528528320727261, -7.352890263575108 ], [ 109.529606299068206, -7.352890263575108 ], [ 109.530684277409151, -7.354507231086523 ], [ 109.531762255750095, -7.354507231086523 ], [ 109.532301244920561, -7.355585209427467 ], [ 109.533379223261505, -7.355585209427467 ], [ 109.533379223261505, -7.35666318776841 ], [ 109.533918212431971, -7.35666318776841 ], [ 109.533918212431971, -7.362592068643599 ], [ 109.53445720160245, -7.362592068643599 ], [ 109.53445720160245, -7.363131057814071 ], [ 109.533918212431971, -7.363131057814071 ], [ 109.533918212431971, -7.364209036155014 ], [ 109.53445720160245, -7.364209036155014 ], [ 109.53445720160245, -7.365287014495958 ], [ 109.533918212431971, -7.365287014495958 ], [ 109.533918212431971, -7.367981960348316 ], [ 109.53445720160245, -7.367981960348316 ], [ 109.53445720160245, -7.372832862882562 ], [ 109.534996190772915, -7.372832862882562 ], [ 109.534996190772915, -7.373910841223505 ], [ 109.535535179943395, -7.373910841223505 ], [ 109.535535179943395, -7.377144776246335 ], [ 109.53607416911386, -7.377144776246335 ], [ 109.53607416911386, -7.37876174375775 ], [ 109.537152147454805, -7.379300732928222 ], [ 109.537152147454805, -7.380378711269166 ], [ 109.537691136625284, -7.380378711269166 ], [ 109.537691136625284, -7.380917700439637 ], [ 109.538230125795749, -7.380917700439637 ], [ 109.538230125795749, -7.38199567878058 ], [ 109.539308104136694, -7.382534667951052 ], [ 109.539308104136694, -7.384151635462468 ], [ 109.539847093307159, -7.384151635462468 ], [ 109.539847093307159, -7.386307592144354 ], [ 109.540386082477639, -7.386307592144354 ], [ 109.540386082477639, -7.38792455965577 ], [ 109.540925071648104, -7.38792455965577 ], [ 109.540925071648104, -7.390080516337656 ], [ 109.541464060818583, -7.390080516337656 ], [ 109.541464060818583, -7.391158494678599 ], [ 109.542542039159528, -7.391697483849072 ], [ 109.543081028329993, -7.392775462190015 ], [ 109.544159006670938, -7.392775462190015 ], [ 109.545236985011883, -7.39439242970143 ], [ 109.546314963352827, -7.39439242970143 ], [ 109.546853952523293, -7.395470408042374 ], [ 109.548470920034717, -7.396548386383317 ], [ 109.548470920034717, -7.39762636472426 ], [ 109.549009909205182, -7.39762636472426 ], [ 109.549009909205182, -7.401938278088034 ], [ 109.548470920034717, -7.401938278088034 ], [ 109.548470920034717, -7.402477267258505 ], [ 109.546853952523293, -7.402477267258505 ], [ 109.546853952523293, -7.403016256428978 ], [ 109.546314963352827, -7.403016256428978 ], [ 109.546314963352827, -7.405172213110864 ], [ 109.545236985011883, -7.405172213110864 ], [ 109.544697995841418, -7.404094234769921 ], [ 109.543081028329993, -7.403016256428978 ], [ 109.543081028329993, -7.403555245599449 ], [ 109.542542039159528, -7.403555245599449 ], [ 109.542542039159528, -7.404094234769921 ], [ 109.543081028329993, -7.404094234769921 ], [ 109.543081028329993, -7.405172213110864 ], [ 109.542542039159528, -7.405172213110864 ], [ 109.542542039159528, -7.40678918062228 ], [ 109.542003049989049, -7.40678918062228 ], [ 109.542003049989049, -7.407328169792751 ], [ 109.541464060818583, -7.407328169792751 ], [ 109.541464060818583, -7.40678918062228 ], [ 109.539308104136694, -7.40678918062228 ], [ 109.539308104136694, -7.406250191451807 ], [ 109.537691136625284, -7.406250191451807 ], [ 109.537691136625284, -7.405711202281336 ], [ 109.537152147454805, -7.405711202281336 ], [ 109.537152147454805, -7.406250191451807 ], [ 109.536613158284339, -7.406250191451807 ], [ 109.536613158284339, -7.40678918062228 ], [ 109.537152147454805, -7.40678918062228 ], [ 109.537152147454805, -7.407867158963223 ], [ 109.536613158284339, -7.407867158963223 ], [ 109.536613158284339, -7.408406148133694 ], [ 109.535535179943395, -7.408406148133694 ], [ 109.535535179943395, -7.407328169792751 ], [ 109.534996190772915, -7.407328169792751 ], [ 109.534996190772915, -7.40678918062228 ], [ 109.532301244920561, -7.40678918062228 ], [ 109.532301244920561, -7.408945137304166 ], [ 109.530684277409151, -7.408945137304166 ], [ 109.530684277409151, -7.409484126474638 ], [ 109.525833374874907, -7.409484126474638 ], [ 109.525294385704427, -7.410562104815582 ], [ 109.523138429022538, -7.410562104815582 ], [ 109.523138429022538, -7.411101093986053 ], [ 109.521521461511128, -7.411101093986053 ], [ 109.521521461511128, -7.411640083156525 ], [ 109.517748537317829, -7.411640083156525 ], [ 109.517748537317829, -7.412718061497468 ], [ 109.515592580635939, -7.412718061497468 ], [ 109.515592580635939, -7.412179072326996 ], [ 109.51505359146546, -7.412179072326996 ], [ 109.51505359146546, -7.411101093986053 ], [ 109.51343662395405, -7.411101093986053 ], [ 109.512897634783585, -7.412179072326996 ], [ 109.51181965644264, -7.412179072326996 ], [ 109.51181965644264, -7.412718061497468 ], [ 109.510741678101695, -7.412718061497468 ], [ 109.510741678101695, -7.412179072326996 ], [ 109.510202688931216, -7.412179072326996 ], [ 109.510202688931216, -7.411101093986053 ], [ 109.509124710590271, -7.411640083156525 ], [ 109.509124710590271, -7.412179072326996 ], [ 109.50804673224934, -7.412179072326996 ], [ 109.50804673224934, -7.410562104815582 ], [ 109.507507743078861, -7.410562104815582 ], [ 109.507507743078861, -7.410023115645109 ], [ 109.504273808056027, -7.410023115645109 ], [ 109.503734818885562, -7.411101093986053 ], [ 109.503195829715082, -7.411101093986053 ], [ 109.503195829715082, -7.412179072326996 ], [ 109.504273808056027, -7.412718061497468 ], [ 109.504273808056027, -7.413796039838411 ], [ 109.504812797226506, -7.413796039838411 ], [ 109.505351786396972, -7.414874018179355 ], [ 109.505890775567451, -7.414874018179355 ], [ 109.506429764737916, -7.415951996520298 ], [ 109.507507743078861, -7.41649098569077 ], [ 109.507507743078861, -7.417568964031713 ], [ 109.50804673224934, -7.417568964031713 ], [ 109.50804673224934, -7.418646942372657 ], [ 109.508585721419806, -7.418646942372657 ], [ 109.508585721419806, -7.420263909884072 ], [ 109.50804673224934, -7.420263909884072 ], [ 109.506968753908396, -7.421880877395488 ], [ 109.505890775567451, -7.422419866565959 ], [ 109.505890775567451, -7.426192790759261 ], [ 109.506429764737916, -7.426192790759261 ], [ 109.506429764737916, -7.427270769100204 ], [ 109.506968753908396, -7.427270769100204 ], [ 109.506968753908396, -7.433738639145865 ], [ 109.506429764737916, -7.433738639145865 ], [ 109.506429764737916, -7.434277628316337 ], [ 109.506968753908396, -7.434277628316337 ], [ 109.507507743078861, -7.437511563339167 ], [ 109.50804673224934, -7.437511563339167 ], [ 109.50804673224934, -7.43858954168011 ], [ 109.508585721419806, -7.43858954168011 ], [ 109.508585721419806, -7.439667520021054 ], [ 109.50804673224934, -7.439667520021054 ], [ 109.50804673224934, -7.447752357578129 ], [ 109.505890775567451, -7.447752357578129 ], [ 109.505890775567451, -7.449908314260016 ], [ 109.504273808056027, -7.449908314260016 ], [ 109.504273808056027, -7.448830335919073 ], [ 109.503734818885562, -7.448830335919073 ], [ 109.503734818885562, -7.448291346748602 ], [ 109.501039873033207, -7.448291346748602 ], [ 109.501039873033207, -7.448830335919073 ], [ 109.498883916351318, -7.449369325089545 ], [ 109.498883916351318, -7.448291346748602 ], [ 109.498344927180838, -7.448291346748602 ], [ 109.497266948839894, -7.446674379237186 ], [ 109.496188970498963, -7.446674379237186 ], [ 109.496188970498963, -7.447213368407658 ], [ 109.495649981328484, -7.447213368407658 ], [ 109.495649981328484, -7.448291346748602 ], [ 109.494572002987539, -7.448830335919073 ], [ 109.494572002987539, -7.449369325089545 ], [ 109.493494024646594, -7.449369325089545 ], [ 109.492955035476129, -7.448291346748602 ], [ 109.491877057135184, -7.447752357578129 ], [ 109.491877057135184, -7.447213368407658 ], [ 109.491338067964705, -7.447213368407658 ], [ 109.491338067964705, -7.446135390066714 ], [ 109.49079907879424, -7.446135390066714 ], [ 109.49079907879424, -7.4445184225553 ], [ 109.490260089623774, -7.4445184225553 ], [ 109.490260089623774, -7.443440444214356 ], [ 109.489721100453295, -7.443440444214356 ], [ 109.48918211128283, -7.442362465873412 ], [ 109.487565143771405, -7.442362465873412 ], [ 109.487565143771405, -7.443979433384827 ], [ 109.48702615460094, -7.443979433384827 ], [ 109.48702615460094, -7.445057411725771 ], [ 109.485948176259996, -7.445057411725771 ], [ 109.485948176259996, -7.445596400896243 ], [ 109.485409187089516, -7.445596400896243 ], [ 109.485409187089516, -7.445057411725771 ], [ 109.484331208748586, -7.4445184225553 ], [ 109.484331208748586, -7.442901455043884 ], [ 109.483792219578106, -7.442901455043884 ], [ 109.482714241237161, -7.441284487532469 ], [ 109.480558284555272, -7.441284487532469 ], [ 109.480558284555272, -7.442901455043884 ], [ 109.481097273725752, -7.442901455043884 ], [ 109.481097273725752, -7.443440444214356 ], [ 109.482175252066696, -7.443440444214356 ], [ 109.482175252066696, -7.443979433384827 ], [ 109.481636262896217, -7.443979433384827 ], [ 109.480558284555272, -7.445596400896243 ], [ 109.476246371191507, -7.445596400896243 ], [ 109.476246371191507, -7.445057411725771 ], [ 109.475707382021028, -7.445057411725771 ], [ 109.475707382021028, -7.443979433384827 ], [ 109.475168392850563, -7.443979433384827 ], [ 109.475168392850563, -7.441823476702941 ], [ 109.472473446998194, -7.441823476702941 ], [ 109.472473446998194, -7.442362465873412 ], [ 109.471934457827729, -7.442362465873412 ], [ 109.471934457827729, -7.4445184225553 ], [ 109.472473446998194, -7.4445184225553 ], [ 109.472473446998194, -7.446135390066714 ], [ 109.473012436168673, -7.446135390066714 ], [ 109.473551425339139, -7.448291346748602 ], [ 109.472473446998194, -7.448291346748602 ], [ 109.472473446998194, -7.448830335919073 ], [ 109.469239511975374, -7.448830335919073 ], [ 109.469239511975374, -7.448291346748602 ], [ 109.468161533634429, -7.448291346748602 ], [ 109.468161533634429, -7.447752357578129 ], [ 109.46600557695254, -7.447213368407658 ], [ 109.465466587782075, -7.446135390066714 ], [ 109.463849620270651, -7.446135390066714 ], [ 109.463849620270651, -7.446674379237186 ], [ 109.461693663588761, -7.447213368407658 ], [ 109.461693663588761, -7.450447303430488 ], [ 109.461154674418296, -7.450447303430488 ], [ 109.461154674418296, -7.451525281771431 ], [ 109.460615685247816, -7.451525281771431 ], [ 109.460076696077351, -7.452603260112375 ], [ 109.455225793543107, -7.452603260112375 ], [ 109.455225793543107, -7.452064270941904 ], [ 109.454147815202163, -7.452064270941904 ], [ 109.454147815202163, -7.451525281771431 ], [ 109.453608826031697, -7.451525281771431 ], [ 109.453608826031697, -7.448291346748602 ], [ 109.453069836861218, -7.448291346748602 ], [ 109.453069836861218, -7.447213368407658 ], [ 109.452530847690753, -7.447213368407658 ], [ 109.452530847690753, -7.446674379237186 ], [ 109.449835901838384, -7.446674379237186 ], [ 109.449835901838384, -7.447213368407658 ], [ 109.448757923497439, -7.447752357578129 ], [ 109.447679945156509, -7.449369325089545 ], [ 109.447140955986029, -7.449369325089545 ], [ 109.447140955986029, -7.450447303430488 ], [ 109.446601966815564, -7.450447303430488 ], [ 109.446601966815564, -7.451525281771431 ], [ 109.447140955986029, -7.451525281771431 ], [ 109.447140955986029, -7.452064270941904 ], [ 109.448757923497439, -7.453142249282847 ], [ 109.448757923497439, -7.45422022762379 ], [ 109.447679945156509, -7.454759216794262 ], [ 109.447679945156509, -7.455837195135206 ], [ 109.446062977645084, -7.455837195135206 ], [ 109.446062977645084, -7.455298205964733 ], [ 109.44498499930414, -7.455298205964733 ], [ 109.44498499930414, -7.454759216794262 ], [ 109.443907020963195, -7.454759216794262 ], [ 109.443907020963195, -7.45422022762379 ], [ 109.440673085940375, -7.45422022762379 ], [ 109.440673085940375, -7.453142249282847 ], [ 109.440134096769896, -7.453142249282847 ], [ 109.440134096769896, -7.450447303430488 ], [ 109.440673085940375, -7.450447303430488 ], [ 109.440673085940375, -7.449369325089545 ], [ 109.440134096769896, -7.449369325089545 ], [ 109.440134096769896, -7.448291346748602 ], [ 109.439056118428951, -7.448291346748602 ], [ 109.439056118428951, -7.448830335919073 ], [ 109.437978140088006, -7.448830335919073 ], [ 109.437439150917541, -7.449908314260016 ], [ 109.436361172576596, -7.449908314260016 ], [ 109.436361172576596, -7.450447303430488 ], [ 109.435822183406131, -7.450447303430488 ], [ 109.435822183406131, -7.451525281771431 ], [ 109.437439150917541, -7.452603260112375 ], [ 109.437439150917541, -7.45422022762379 ], [ 109.436900161747062, -7.45422022762379 ], [ 109.436900161747062, -7.455298205964733 ], [ 109.435283194235652, -7.456376184305677 ], [ 109.435283194235652, -7.456915173476149 ], [ 109.434205215894707, -7.456915173476149 ], [ 109.433666226724242, -7.457993151817092 ], [ 109.432049259212818, -7.457993151817092 ], [ 109.430971280871873, -7.459610119328507 ], [ 109.429893302530942, -7.459610119328507 ], [ 109.429893302530942, -7.459071130158035 ], [ 109.429354313360463, -7.459071130158035 ], [ 109.429354313360463, -7.457993151817092 ], [ 109.428815324189998, -7.457993151817092 ], [ 109.428815324189998, -7.456915173476149 ], [ 109.428276335019518, -7.456915173476149 ], [ 109.428276335019518, -7.455298205964733 ], [ 109.427737345849053, -7.455298205964733 ], [ 109.427737345849053, -7.454759216794262 ], [ 109.426120378337629, -7.454759216794262 ], [ 109.426120378337629, -7.455298205964733 ], [ 109.425581389167164, -7.455298205964733 ], [ 109.425581389167164, -7.456376184305677 ], [ 109.426659367508108, -7.456915173476149 ], [ 109.427737345849053, -7.458532140987564 ], [ 109.427198356678574, -7.458532140987564 ], [ 109.427198356678574, -7.459071130158035 ], [ 109.423964421655754, -7.459071130158035 ], [ 109.423964421655754, -7.458532140987564 ], [ 109.423425432485274, -7.458532140987564 ], [ 109.423425432485274, -7.459071130158035 ], [ 109.422886443314809, -7.459071130158035 ], [ 109.423425432485274, -7.461227086839922 ], [ 109.423964421655754, -7.461227086839922 ], [ 109.424503410826219, -7.468233946056055 ], [ 109.423425432485274, -7.468772935226526 ], [ 109.423425432485274, -7.469311924396998 ], [ 109.42234745414433, -7.469311924396998 ], [ 109.42234745414433, -7.46985091356747 ], [ 109.421269475803385, -7.46985091356747 ], [ 109.421269475803385, -7.470389902737941 ], [ 109.42019149746244, -7.470389902737941 ], [ 109.42019149746244, -7.470928891908413 ], [ 109.419113519121495, -7.470928891908413 ], [ 109.419113519121495, -7.471467881078885 ], [ 109.418035540780565, -7.472006870249357 ], [ 109.418035540780565, -7.4730848485903 ], [ 109.419652508291975, -7.474162826931243 ], [ 109.419652508291975, -7.475240805272187 ], [ 109.42019149746244, -7.475240805272187 ], [ 109.42019149746244, -7.475779794442658 ], [ 109.419652508291975, -7.475779794442658 ], [ 109.419652508291975, -7.477935751124545 ], [ 109.419113519121495, -7.477935751124545 ], [ 109.419113519121495, -7.479013729465489 ], [ 109.414262616587251, -7.479013729465489 ], [ 109.414262616587251, -7.478474740295017 ], [ 109.412645649075841, -7.478474740295017 ], [ 109.412645649075841, -7.477935751124545 ], [ 109.411567670734897, -7.477935751124545 ], [ 109.411567670734897, -7.475779794442658 ], [ 109.412106659905362, -7.475779794442658 ], [ 109.412106659905362, -7.474162826931243 ], [ 109.412645649075841, -7.474162826931243 ], [ 109.413184638246307, -7.470928891908413 ], [ 109.412645649075841, -7.470928891908413 ], [ 109.412645649075841, -7.470389902737941 ], [ 109.411028681564432, -7.470389902737941 ], [ 109.411028681564432, -7.470928891908413 ], [ 109.409950703223487, -7.470928891908413 ], [ 109.409950703223487, -7.471467881078885 ], [ 109.407794746541597, -7.471467881078885 ], [ 109.406716768200653, -7.46985091356747 ], [ 109.405638789859708, -7.46985091356747 ], [ 109.405099800689243, -7.468772935226526 ], [ 109.404560811518763, -7.468772935226526 ], [ 109.404021822348298, -7.467694956885583 ], [ 109.402943844007353, -7.467694956885583 ], [ 109.402943844007353, -7.467155967715111 ], [ 109.400787887325464, -7.467155967715111 ], [ 109.400787887325464, -7.468772935226526 ], [ 109.401326876495929, -7.468772935226526 ], [ 109.401326876495929, -7.46985091356747 ], [ 109.402943844007353, -7.470928891908413 ], [ 109.402943844007353, -7.472006870249357 ], [ 109.403482833177819, -7.472006870249357 ], [ 109.403482833177819, -7.475240805272187 ], [ 109.402943844007353, -7.475240805272187 ], [ 109.402943844007353, -7.475779794442658 ], [ 109.400787887325464, -7.475779794442658 ], [ 109.400787887325464, -7.475240805272187 ], [ 109.39755395230263, -7.474701816101715 ], [ 109.39755395230263, -7.474162826931243 ], [ 109.393781028109331, -7.474162826931243 ], [ 109.392703049768386, -7.475779794442658 ], [ 109.391625071427441, -7.475779794442658 ], [ 109.391625071427441, -7.47631878361313 ], [ 109.390008103916031, -7.47631878361313 ], [ 109.390008103916031, -7.476857772783602 ], [ 109.387852147234142, -7.476857772783602 ], [ 109.387852147234142, -7.477396761954074 ], [ 109.386235179722732, -7.477396761954074 ], [ 109.385157201381787, -7.479013729465489 ], [ 109.384079223040843, -7.479013729465489 ], [ 109.384079223040843, -7.47955271863596 ], [ 109.381923266358953, -7.480091707806432 ], [ 109.381923266358953, -7.481169686147376 ], [ 109.381384277188488, -7.481169686147376 ], [ 109.381384277188488, -7.482786653658791 ], [ 109.380306298847543, -7.482786653658791 ], [ 109.380306298847543, -7.482247664488319 ], [ 109.379228320506598, -7.482247664488319 ], [ 109.379228320506598, -7.481708675317847 ], [ 109.378150342165654, -7.481708675317847 ], [ 109.377072363824709, -7.480091707806432 ], [ 109.37653337465423, -7.480091707806432 ], [ 109.37653337465423, -7.479013729465489 ], [ 109.375994385483764, -7.479013729465489 ], [ 109.375994385483764, -7.478474740295017 ], [ 109.37491640714282, -7.478474740295017 ], [ 109.37491640714282, -7.477935751124545 ], [ 109.37276045046093, -7.477935751124545 ], [ 109.37276045046093, -7.483864631999734 ], [ 109.371682472119986, -7.484403621170206 ], [ 109.37114348294952, -7.485481599511149 ], [ 109.366292580415276, -7.486020588681621 ], [ 109.366292580415276, -7.486559577852093 ], [ 109.365214602074332, -7.486559577852093 ], [ 109.365214602074332, -7.487098567022564 ], [ 109.363597634562922, -7.487098567022564 ], [ 109.362519656221977, -7.485481599511149 ], [ 109.361441677881032, -7.485481599511149 ], [ 109.361441677881032, -7.487637556193036 ], [ 109.361980667051498, -7.487637556193036 ], [ 109.361980667051498, -7.48871553453398 ], [ 109.363058645392442, -7.48871553453398 ], [ 109.363058645392442, -7.489793512874923 ], [ 109.363597634562922, -7.489793512874923 ], [ 109.363597634562922, -7.491410480386338 ], [ 109.364136623733387, -7.491410480386338 ], [ 109.364136623733387, -7.493566437068225 ], [ 109.363058645392442, -7.494105426238697 ], [ 109.363058645392442, -7.49518340457964 ], [ 109.363597634562922, -7.49518340457964 ], [ 109.363597634562922, -7.494644415409168 ], [ 109.364675612903852, -7.494644415409168 ], [ 109.364675612903852, -7.496261382920584 ], [ 109.365753591244797, -7.496261382920584 ], [ 109.365753591244797, -7.497878350431999 ], [ 109.365214602074332, -7.497878350431999 ], [ 109.365214602074332, -7.498956328772942 ], [ 109.364675612903852, -7.498956328772942 ], [ 109.364675612903852, -7.499495317943414 ], [ 109.362519656221977, -7.499495317943414 ], [ 109.363058645392442, -7.500573296284357 ], [ 109.364675612903852, -7.500573296284357 ], [ 109.364675612903852, -7.501651274625301 ], [ 109.365214602074332, -7.501651274625301 ], [ 109.365214602074332, -7.502190263795772 ], [ 109.364675612903852, -7.502190263795772 ], [ 109.364675612903852, -7.503268242136716 ], [ 109.365214602074332, -7.503268242136716 ], [ 109.364675612903852, -7.504346220477659 ], [ 109.365214602074332, -7.504346220477659 ], [ 109.365214602074332, -7.504885209648131 ], [ 109.364675612903852, -7.504885209648131 ], [ 109.364675612903852, -7.505963187989074 ], [ 109.364136623733387, -7.505963187989074 ], [ 109.364136623733387, -7.507041166330018 ], [ 109.365214602074332, -7.507041166330018 ], [ 109.365214602074332, -7.508119144670961 ], [ 109.364675612903852, -7.508119144670961 ], [ 109.364675612903852, -7.510275101352848 ], [ 109.363058645392442, -7.511353079693792 ], [ 109.363058645392442, -7.512970047205207 ], [ 109.361980667051498, -7.513509036375678 ], [ 109.361980667051498, -7.51404802554615 ], [ 109.362519656221977, -7.51404802554615 ], [ 109.362519656221977, -7.515664993057565 ], [ 109.363597634562922, -7.516203982228037 ], [ 109.364136623733387, -7.51728196056898 ], [ 109.365214602074332, -7.51728196056898 ], [ 109.365214602074332, -7.517820949739452 ], [ 109.366831569585742, -7.517820949739452 ], [ 109.366831569585742, -7.516742971398509 ], [ 109.367370558756221, -7.516742971398509 ], [ 109.367370558756221, -7.516203982228037 ], [ 109.36952651543811, -7.516742971398509 ], [ 109.370604493779041, -7.518359938909924 ], [ 109.37114348294952, -7.518359938909924 ], [ 109.37114348294952, -7.519437917250867 ], [ 109.372221461290465, -7.519976906421339 ], [ 109.37276045046093, -7.521054884762282 ], [ 109.37329943963141, -7.521054884762282 ], [ 109.373838428801875, -7.522132863103226 ], [ 109.375994385483764, -7.522132863103226 ], [ 109.37653337465423, -7.523210841444169 ], [ 109.377072363824709, -7.523210841444169 ], [ 109.377072363824709, -7.522671852273698 ], [ 109.377611352995174, -7.522671852273698 ], [ 109.377611352995174, -7.523210841444169 ], [ 109.380306298847543, -7.523210841444169 ], [ 109.380306298847543, -7.522671852273698 ], [ 109.382462255529418, -7.522132863103226 ], [ 109.382462255529418, -7.522671852273698 ], [ 109.383001244699898, -7.522671852273698 ], [ 109.383001244699898, -7.523749830614641 ], [ 109.384079223040843, -7.523749830614641 ], [ 109.384079223040843, -7.524288819785113 ], [ 109.385696190552252, -7.524288819785113 ], [ 109.385696190552252, -7.524827808955584 ], [ 109.386235179722732, -7.524827808955584 ], [ 109.386235179722732, -7.525905787296528 ], [ 109.386774168893197, -7.525905787296528 ], [ 109.386774168893197, -7.527522754807943 ], [ 109.387313158063677, -7.527522754807943 ], [ 109.387313158063677, -7.530217700660302 ], [ 109.387852147234142, -7.530217700660302 ], [ 109.387852147234142, -7.530756689830773 ], [ 109.389469114745552, -7.530756689830773 ], [ 109.390008103916031, -7.531834668171717 ], [ 109.391086082256976, -7.531834668171717 ], [ 109.391625071427441, -7.53291264651266 ], [ 109.392703049768386, -7.53291264651266 ], [ 109.392703049768386, -7.533451635683132 ], [ 109.394320017279796, -7.534529614024075 ], [ 109.394320017279796, -7.535607592365019 ], [ 109.394859006450275, -7.535607592365019 ], [ 109.395397995620741, -7.536685570705962 ], [ 109.396475973961685, -7.536685570705962 ], [ 109.396475973961685, -7.53614658153549 ], [ 109.39755395230263, -7.536685570705962 ], [ 109.39755395230263, -7.535068603194547 ], [ 109.398631930643575, -7.534529614024075 ], [ 109.398631930643575, -7.535607592365019 ], [ 109.399170919814054, -7.535607592365019 ], [ 109.399170919814054, -7.53614658153549 ], [ 109.401326876495929, -7.536685570705962 ], [ 109.401326876495929, -7.537763549046906 ], [ 109.401865865666409, -7.537763549046906 ], [ 109.402404854836874, -7.538841527387849 ], [ 109.403482833177819, -7.539380516558321 ], [ 109.403482833177819, -7.540458494899264 ], [ 109.405638789859708, -7.540458494899264 ], [ 109.405638789859708, -7.539919505728792 ], [ 109.407794746541597, -7.540458494899264 ], [ 109.408333735712063, -7.539380516558321 ], [ 109.409950703223487, -7.539380516558321 ], [ 109.409950703223487, -7.538841527387849 ], [ 109.411567670734897, -7.538841527387849 ], [ 109.411567670734897, -7.538302538217377 ], [ 109.413184638246307, -7.538302538217377 ], [ 109.413184638246307, -7.538841527387849 ], [ 109.413723627416786, -7.538841527387849 ], [ 109.413723627416786, -7.538302538217377 ], [ 109.415340594928196, -7.538302538217377 ], [ 109.415340594928196, -7.538841527387849 ], [ 109.416418573269141, -7.538841527387849 ], [ 109.416418573269141, -7.537763549046906 ], [ 109.417496551610085, -7.537224559876434 ], [ 109.417496551610085, -7.536685570705962 ], [ 109.41695756243962, -7.536685570705962 ], [ 109.41695756243962, -7.535607592365019 ], [ 109.418035540780565, -7.535068603194547 ], [ 109.418035540780565, -7.533990624853604 ], [ 109.42073048663292, -7.533990624853604 ], [ 109.42073048663292, -7.534529614024075 ], [ 109.421808464973864, -7.534529614024075 ], [ 109.421808464973864, -7.535068603194547 ], [ 109.423425432485274, -7.535068603194547 ], [ 109.423425432485274, -7.535607592365019 ], [ 109.424503410826219, -7.535607592365019 ], [ 109.425042399996684, -7.536685570705962 ], [ 109.426120378337629, -7.536685570705962 ], [ 109.426120378337629, -7.537224559876434 ], [ 109.431510270042352, -7.537224559876434 ], [ 109.431510270042352, -7.536685570705962 ], [ 109.432588248383297, -7.536685570705962 ], [ 109.433127237553762, -7.535607592365019 ], [ 109.433666226724242, -7.535607592365019 ], [ 109.433666226724242, -7.531834668171717 ], [ 109.434205215894707, -7.531834668171717 ], [ 109.434205215894707, -7.52967871148983 ], [ 109.434744205065186, -7.52967871148983 ], [ 109.435283194235652, -7.528600733148886 ], [ 109.436361172576596, -7.528600733148886 ], [ 109.436361172576596, -7.527522754807943 ], [ 109.436900161747062, -7.527522754807943 ], [ 109.436900161747062, -7.526983765637471 ], [ 109.438517129258486, -7.526983765637471 ], [ 109.438517129258486, -7.526444776467 ], [ 109.44175106428132, -7.526444776467 ], [ 109.44175106428132, -7.525905787296528 ], [ 109.44282904262225, -7.525905787296528 ], [ 109.44282904262225, -7.525366798126056 ], [ 109.444446010133674, -7.525366798126056 ], [ 109.444446010133674, -7.524827808955584 ], [ 109.448757923497439, -7.524827808955584 ], [ 109.448757923497439, -7.524288819785113 ], [ 109.451452869349808, -7.524288819785113 ], [ 109.451452869349808, -7.523749830614641 ], [ 109.456303771884052, -7.523210841444169 ], [ 109.456303771884052, -7.522671852273698 ], [ 109.457381750224997, -7.522671852273698 ], [ 109.457920739395462, -7.521593873932754 ], [ 109.459537706906886, -7.520515895591811 ], [ 109.459537706906886, -7.519976906421339 ], [ 109.461154674418296, -7.519976906421339 ], [ 109.461154674418296, -7.519437917250867 ], [ 109.464927598611595, -7.519437917250867 ], [ 109.464927598611595, -7.519976906421339 ], [ 109.46600557695254, -7.519976906421339 ], [ 109.46600557695254, -7.521054884762282 ], [ 109.467083555293485, -7.521593873932754 ], [ 109.46762254446395, -7.522671852273698 ], [ 109.468161533634429, -7.522671852273698 ], [ 109.468161533634429, -7.522132863103226 ], [ 109.469778501145839, -7.522132863103226 ], [ 109.469778501145839, -7.521593873932754 ], [ 109.471395468657263, -7.521593873932754 ], [ 109.471395468657263, -7.521054884762282 ], [ 109.472473446998194, -7.521054884762282 ], [ 109.472473446998194, -7.520515895591811 ], [ 109.473012436168673, -7.520515895591811 ], [ 109.473012436168673, -7.519976906421339 ], [ 109.474629403680083, -7.519976906421339 ], [ 109.474629403680083, -7.519437917250867 ], [ 109.476246371191507, -7.519437917250867 ], [ 109.476246371191507, -7.518898928080396 ], [ 109.477863338702917, -7.518898928080396 ], [ 109.477863338702917, -7.518359938909924 ], [ 109.480558284555272, -7.518359938909924 ], [ 109.480558284555272, -7.517820949739452 ], [ 109.482714241237161, -7.517820949739452 ], [ 109.482714241237161, -7.51728196056898 ], [ 109.483253230407641, -7.51728196056898 ], [ 109.483253230407641, -7.516203982228037 ], [ 109.482714241237161, -7.516203982228037 ], [ 109.482714241237161, -7.51404802554615 ], [ 109.483253230407641, -7.51404802554615 ], [ 109.483792219578106, -7.511892068864263 ], [ 109.484331208748586, -7.511892068864263 ], [ 109.484870197919051, -7.51081409052332 ], [ 109.48918211128283, -7.51081409052332 ], [ 109.48918211128283, -7.510275101352848 ], [ 109.491338067964705, -7.510275101352848 ], [ 109.491338067964705, -7.509736112182376 ], [ 109.49241604630565, -7.509197123011905 ], [ 109.49241604630565, -7.508119144670961 ], [ 109.492955035476129, -7.508119144670961 ], [ 109.492955035476129, -7.50758015550049 ], [ 109.495110992158018, -7.50758015550049 ], [ 109.495649981328484, -7.506502177159546 ], [ 109.496188970498963, -7.506502177159546 ], [ 109.496188970498963, -7.505424198818603 ], [ 109.496727959669428, -7.505424198818603 ], [ 109.497266948839894, -7.503268242136716 ], [ 109.498344927180838, -7.503268242136716 ], [ 109.498344927180838, -7.508119144670961 ], [ 109.498883916351318, -7.508119144670961 ], [ 109.498883916351318, -7.509736112182376 ], [ 109.499422905521783, -7.509736112182376 ], [ 109.499422905521783, -7.510275101352848 ], [ 109.501578862203672, -7.510275101352848 ], [ 109.501578862203672, -7.509736112182376 ], [ 109.502656840544617, -7.509736112182376 ], [ 109.502656840544617, -7.509197123011905 ], [ 109.506429764737916, -7.509197123011905 ], [ 109.506429764737916, -7.508658133841433 ], [ 109.509124710590271, -7.508658133841433 ], [ 109.509124710590271, -7.509197123011905 ], [ 109.51128066727216, -7.509197123011905 ], [ 109.51128066727216, -7.509736112182376 ], [ 109.512358645613105, -7.509197123011905 ], [ 109.512358645613105, -7.509736112182376 ], [ 109.514514602294994, -7.509736112182376 ], [ 109.514514602294994, -7.510275101352848 ], [ 109.517209548147349, -7.510275101352848 ], [ 109.517209548147349, -7.51081409052332 ], [ 109.518826515658773, -7.51081409052332 ], [ 109.518826515658773, -7.511353079693792 ], [ 109.519904493999718, -7.511353079693792 ], [ 109.519904493999718, -7.511892068864263 ], [ 109.520982472340648, -7.511892068864263 ], [ 109.520982472340648, -7.512431058034735 ], [ 109.522060450681593, -7.512431058034735 ], [ 109.522060450681593, -7.512970047205207 ], [ 109.523677418193017, -7.51404802554615 ], [ 109.524216407363483, -7.515126003887094 ], [ 109.525294385704427, -7.515126003887094 ], [ 109.525294385704427, -7.515664993057565 ], [ 109.538230125795749, -7.515664993057565 ], [ 109.538230125795749, -7.516203982228037 ], [ 109.538769114966215, -7.516203982228037 ], [ 109.538769114966215, -7.51728196056898 ], [ 109.539308104136694, -7.51728196056898 ], [ 109.539308104136694, -7.518359938909924 ], [ 109.540386082477639, -7.518898928080396 ], [ 109.540925071648104, -7.519976906421339 ], [ 109.541464060818583, -7.519976906421339 ], [ 109.542003049989049, -7.521054884762282 ], [ 109.543081028329993, -7.521054884762282 ], [ 109.544159006670938, -7.522671852273698 ], [ 109.545775974182348, -7.522671852273698 ], [ 109.545775974182348, -7.522132863103226 ], [ 109.546314963352827, -7.522132863103226 ], [ 109.546853952523293, -7.519976906421339 ], [ 109.547931930864237, -7.519437917250867 ], [ 109.548470920034717, -7.515126003887094 ], [ 109.549009909205182, -7.515126003887094 ], [ 109.549009909205182, -7.51404802554615 ], [ 109.549548898375662, -7.51404802554615 ], [ 109.550087887546127, -7.512970047205207 ], [ 109.551165865887072, -7.512431058034735 ], [ 109.551165865887072, -7.511353079693792 ], [ 109.552782833398481, -7.511353079693792 ], [ 109.552782833398481, -7.51081409052332 ], [ 109.553860811739426, -7.51081409052332 ], [ 109.553860811739426, -7.511353079693792 ], [ 109.556555757591795, -7.511353079693792 ], [ 109.55709474676226, -7.510275101352848 ], [ 109.558172725103205, -7.510275101352848 ], [ 109.558172725103205, -7.509736112182376 ], [ 109.561945649296504, -7.509736112182376 ], [ 109.561945649296504, -7.509197123011905 ], [ 109.564101605978394, -7.509197123011905 ], [ 109.564101605978394, -7.509736112182376 ], [ 109.568952508512638, -7.509736112182376 ], [ 109.568952508512638, -7.510275101352848 ], [ 109.570030486853582, -7.510275101352848 ], [ 109.570030486853582, -7.51081409052332 ], [ 109.570569476024048, -7.51081409052332 ], [ 109.570569476024048, -7.511892068864263 ], [ 109.571108465194527, -7.511892068864263 ], [ 109.572186443535472, -7.513509036375678 ], [ 109.574881389387826, -7.513509036375678 ], [ 109.574881389387826, -7.512970047205207 ], [ 109.57811532441066, -7.512970047205207 ], [ 109.57811532441066, -7.513509036375678 ], [ 109.585122183626794, -7.513509036375678 ], [ 109.585122183626794, -7.51404802554615 ], [ 109.586200161967739, -7.51404802554615 ], [ 109.586200161967739, -7.514587014716622 ], [ 109.586739151138204, -7.514587014716622 ], [ 109.586739151138204, -7.515664993057565 ], [ 109.587278140308669, -7.515664993057565 ], [ 109.587278140308669, -7.515126003887094 ], [ 109.588356118649614, -7.514587014716622 ], [ 109.588356118649614, -7.513509036375678 ], [ 109.593207021183858, -7.513509036375678 ], [ 109.593207021183858, -7.512970047205207 ], [ 109.594284999524803, -7.512970047205207 ], [ 109.594284999524803, -7.511353079693792 ], [ 109.598057923718116, -7.510275101352848 ], [ 109.599135902059047, -7.508658133841433 ], [ 109.600752869570471, -7.508658133841433 ], [ 109.600752869570471, -7.50758015550049 ], [ 109.601830847911415, -7.507041166330018 ], [ 109.601830847911415, -7.505963187989074 ], [ 109.60452579376377, -7.505963187989074 ], [ 109.60452579376377, -7.505424198818603 ], [ 109.60614276127518, -7.505424198818603 ], [ 109.60614276127518, -7.504885209648131 ], [ 109.610454674638959, -7.504885209648131 ], [ 109.610454674638959, -7.504346220477659 ], [ 109.612610631320848, -7.504885209648131 ], [ 109.612610631320848, -7.504346220477659 ], [ 109.613149620491313, -7.504346220477659 ], [ 109.613149620491313, -7.502190263795772 ], [ 109.615305577173203, -7.501112285454829 ], [ 109.615305577173203, -7.499495317943414 ], [ 109.614766588002738, -7.499495317943414 ], [ 109.615305577173203, -7.49841733960247 ], [ 109.614766588002738, -7.49841733960247 ], [ 109.614766588002738, -7.497339361261527 ], [ 109.615305577173203, -7.497339361261527 ], [ 109.615305577173203, -7.496261382920584 ], [ 109.616922544684627, -7.49518340457964 ], [ 109.618000523025557, -7.493566437068225 ], [ 109.618539512196037, -7.493566437068225 ], [ 109.619078501366502, -7.491410480386338 ], [ 109.620695468877926, -7.491410480386338 ], [ 109.620695468877926, -7.490871491215866 ], [ 109.621773447218871, -7.490871491215866 ], [ 109.621773447218871, -7.490332502045395 ], [ 109.622851425559816, -7.489793512874923 ], [ 109.623929403900746, -7.488176545363508 ], [ 109.625007382241691, -7.488176545363508 ], [ 109.62554637141217, -7.487098567022564 ], [ 109.626624349753115, -7.487098567022564 ], [ 109.62770232809406, -7.485481599511149 ], [ 109.628780306435004, -7.485481599511149 ], [ 109.62931929560547, -7.484403621170206 ], [ 109.630397273946414, -7.484403621170206 ], [ 109.630397273946414, -7.483325642829262 ], [ 109.631475252287359, -7.482786653658791 ], [ 109.631475252287359, -7.482247664488319 ], [ 109.632553230628304, -7.482247664488319 ], [ 109.632553230628304, -7.481708675317847 ], [ 109.635787165651124, -7.481708675317847 ], [ 109.635787165651124, -7.481169686147376 ], [ 109.638482111503492, -7.481169686147376 ], [ 109.639021100673958, -7.482247664488319 ], [ 109.640099079014902, -7.482247664488319 ], [ 109.640099079014902, -7.482786653658791 ], [ 109.640638068185382, -7.482786653658791 ], [ 109.641716046526312, -7.484403621170206 ], [ 109.642794024867257, -7.484942610340678 ], [ 109.642794024867257, -7.486020588681621 ], [ 109.643872003208202, -7.486559577852093 ], [ 109.643872003208202, -7.487637556193036 ], [ 109.644410992378681, -7.487637556193036 ], [ 109.644410992378681, -7.48871553453398 ], [ 109.644949981549146, -7.48871553453398 ], [ 109.644949981549146, -7.490332502045395 ], [ 109.645488970719626, -7.490332502045395 ], [ 109.645488970719626, -7.491410480386338 ], [ 109.646027959890091, -7.491410480386338 ], [ 109.646027959890091, -7.493027447897753 ], [ 109.646566949060571, -7.493027447897753 ], [ 109.646566949060571, -7.494105426238697 ], [ 109.647105938231036, -7.494105426238697 ], [ 109.647644927401501, -7.49518340457964 ], [ 109.648722905742446, -7.49518340457964 ], [ 109.648722905742446, -7.495722393750112 ], [ 109.654651786617634, -7.496261382920584 ], [ 109.654651786617634, -7.495722393750112 ], [ 109.656268754129059, -7.495722393750112 ], [ 109.656268754129059, -7.49518340457964 ], [ 109.658424710810948, -7.494644415409168 ], [ 109.658424710810948, -7.494105426238697 ], [ 109.659502689151878, -7.494105426238697 ], [ 109.659502689151878, -7.493566437068225 ], [ 109.661119656663303, -7.493566437068225 ], [ 109.661119656663303, -7.493027447897753 ], [ 109.665431570027067, -7.493027447897753 ], [ 109.666509548368012, -7.494644415409168 ], [ 109.667587526708957, -7.49518340457964 ], [ 109.667587526708957, -7.496261382920584 ], [ 109.668665505049901, -7.496800372091055 ], [ 109.668665505049901, -7.497878350431999 ], [ 109.670282472561325, -7.498956328772942 ], [ 109.671360450902256, -7.500573296284357 ], [ 109.672438429243201, -7.500573296284357 ], [ 109.671899440072735, -7.502729252966244 ], [ 109.676750342606979, -7.502729252966244 ], [ 109.676750342606979, -7.503268242136716 ], [ 109.677828320947924, -7.503268242136716 ], [ 109.677828320947924, -7.502190263795772 ], [ 109.678367310118389, -7.502190263795772 ], [ 109.678367310118389, -7.501651274625301 ], [ 109.679445288459334, -7.501651274625301 ], [ 109.679445288459334, -7.502190263795772 ], [ 109.682679223482168, -7.502190263795772 ], [ 109.683218212652648, -7.503268242136716 ], [ 109.685374169334523, -7.503268242136716 ], [ 109.685913158505002, -7.502190263795772 ], [ 109.688069115186892, -7.502190263795772 ], [ 109.688069115186892, -7.500034307113886 ], [ 109.688608104357357, -7.500034307113886 ], [ 109.688069115186892, -7.497878350431999 ], [ 109.688608104357357, -7.497878350431999 ], [ 109.688608104357357, -7.496800372091055 ], [ 109.69399799606208, -7.496800372091055 ], [ 109.69399799606208, -7.496261382920584 ], [ 109.69777092025538, -7.496261382920584 ], [ 109.69777092025538, -7.495722393750112 ], [ 109.698848898596324, -7.495722393750112 ], [ 109.698848898596324, -7.49518340457964 ], [ 109.699926876937269, -7.49518340457964 ], [ 109.699926876937269, -7.494644415409168 ], [ 109.701004855278214, -7.494105426238697 ], [ 109.702082833619144, -7.492488458727282 ], [ 109.703160811960089, -7.492488458727282 ], [ 109.703160811960089, -7.49194946955681 ], [ 109.703699801130568, -7.49194946955681 ], [ 109.703699801130568, -7.491410480386338 ], [ 109.704777779471513, -7.490871491215866 ], [ 109.705316768641978, -7.489793512874923 ], [ 109.705855757812458, -7.489793512874923 ], [ 109.706394746982923, -7.48871553453398 ], [ 109.706933736153402, -7.48871553453398 ], [ 109.706933736153402, -7.487637556193036 ], [ 109.707472725323868, -7.487637556193036 ], [ 109.707472725323868, -7.486020588681621 ], [ 109.708011714494333, -7.486020588681621 ], [ 109.708011714494333, -7.485481599511149 ], [ 109.709089692835278, -7.485481599511149 ], [ 109.709628682005757, -7.484403621170206 ], [ 109.710706660346702, -7.484403621170206 ], [ 109.710706660346702, -7.483325642829262 ], [ 109.711245649517167, -7.483325642829262 ], [ 109.711245649517167, -7.482786653658791 ], [ 109.712323627858112, -7.482786653658791 ], [ 109.712323627858112, -7.482247664488319 ], [ 109.713401606199056, -7.482247664488319 ], [ 109.713401606199056, -7.482786653658791 ], [ 109.713940595369522, -7.482786653658791 ], [ 109.713940595369522, -7.482247664488319 ], [ 109.715557562880946, -7.482247664488319 ], [ 109.715557562880946, -7.481169686147376 ], [ 109.716635541221891, -7.480630696976904 ], [ 109.717713519562835, -7.479013729465489 ], [ 109.71879149790378, -7.479013729465489 ], [ 109.719330487074245, -7.477935751124545 ], [ 109.721486443756135, -7.477935751124545 ], [ 109.721486443756135, -7.477396761954074 ], [ 109.723642400438024, -7.476857772783602 ], [ 109.723642400438024, -7.47631878361313 ], [ 109.727954313801789, -7.47631878361313 ], [ 109.727954313801789, -7.476857772783602 ], [ 109.729571281313213, -7.476857772783602 ], [ 109.729571281313213, -7.477396761954074 ], [ 109.730649259654157, -7.477396761954074 ], [ 109.730649259654157, -7.477935751124545 ], [ 109.731727237995088, -7.477935751124545 ], [ 109.731727237995088, -7.478474740295017 ], [ 109.733344205506512, -7.478474740295017 ], [ 109.733344205506512, -7.476857772783602 ], [ 109.733883194676977, -7.476857772783602 ], [ 109.733883194676977, -7.47631878361313 ], [ 109.734961173017922, -7.47631878361313 ], [ 109.736039151358867, -7.474701816101715 ], [ 109.734422183847457, -7.474701816101715 ], [ 109.734422183847457, -7.4730848485903 ], [ 109.733883194676977, -7.4730848485903 ], [ 109.733344205506512, -7.472006870249357 ], [ 109.732266227165567, -7.471467881078885 ], [ 109.732266227165567, -7.46985091356747 ], [ 109.733883194676977, -7.46985091356747 ], [ 109.734422183847457, -7.470928891908413 ], [ 109.735500162188401, -7.470928891908413 ], [ 109.735500162188401, -7.46985091356747 ], [ 109.736039151358867, -7.46985091356747 ], [ 109.736039151358867, -7.469311924396998 ], [ 109.737117129699811, -7.469311924396998 ], [ 109.737117129699811, -7.468772935226526 ], [ 109.738195108040756, -7.468772935226526 ], [ 109.738195108040756, -7.469311924396998 ], [ 109.740351064722645, -7.469311924396998 ], [ 109.740351064722645, -7.468772935226526 ], [ 109.74142904306359, -7.468772935226526 ], [ 109.74142904306359, -7.467694956885583 ], [ 109.741968032234055, -7.467694956885583 ], [ 109.741968032234055, -7.467155967715111 ], [ 109.74142904306359, -7.467155967715111 ], [ 109.74142904306359, -7.466616978544639 ], [ 109.741968032234055, -7.466616978544639 ], [ 109.741968032234055, -7.465539000203696 ], [ 109.742507021404535, -7.465539000203696 ], [ 109.74358499974548, -7.463922032692281 ], [ 109.745201967256889, -7.463922032692281 ], [ 109.745740956427355, -7.462844054351337 ], [ 109.746818934768299, -7.462844054351337 ], [ 109.746818934768299, -7.461227086839922 ], [ 109.747357923938779, -7.461227086839922 ], [ 109.747357923938779, -7.460149108498979 ], [ 109.748435902279724, -7.459610119328507 ], [ 109.748974891450189, -7.458532140987564 ], [ 109.749513880620668, -7.458532140987564 ], [ 109.749513880620668, -7.457993151817092 ], [ 109.750591858961599, -7.457993151817092 ], [ 109.750591858961599, -7.458532140987564 ], [ 109.751130848132078, -7.458532140987564 ], [ 109.751669837302543, -7.461766076010394 ], [ 109.752208826473023, -7.461766076010394 ], [ 109.752208826473023, -7.461227086839922 ], [ 109.752747815643488, -7.461227086839922 ], [ 109.752747815643488, -7.460149108498979 ], [ 109.753286804813968, -7.460149108498979 ], [ 109.753286804813968, -7.459071130158035 ], [ 109.753825793984433, -7.459071130158035 ], [ 109.753825793984433, -7.456376184305677 ], [ 109.754364783154912, -7.456376184305677 ], [ 109.754364783154912, -7.454759216794262 ], [ 109.754903772325378, -7.454759216794262 ], [ 109.754903772325378, -7.453681238453318 ], [ 109.755442761495857, -7.453681238453318 ], [ 109.755442761495857, -7.45098629260096 ], [ 109.755981750666322, -7.45098629260096 ], [ 109.755981750666322, -7.447752357578129 ], [ 109.754364783154912, -7.447752357578129 ], [ 109.753286804813968, -7.446135390066714 ], [ 109.752747815643488, -7.446135390066714 ], [ 109.752747815643488, -7.443440444214356 ], [ 109.753825793984433, -7.442901455043884 ], [ 109.753825793984433, -7.442362465873412 ], [ 109.753286804813968, -7.442362465873412 ], [ 109.753286804813968, -7.441284487532469 ], [ 109.753825793984433, -7.441284487532469 ], [ 109.753825793984433, -7.440206509191525 ], [ 109.754364783154912, -7.440206509191525 ], [ 109.754364783154912, -7.439667520021054 ], [ 109.759215685689156, -7.440206509191525 ], [ 109.759215685689156, -7.440745498361998 ], [ 109.761910631541511, -7.440745498361998 ], [ 109.761910631541511, -7.441284487532469 ], [ 109.762988609882456, -7.441823476702941 ], [ 109.7640665882234, -7.443440444214356 ], [ 109.765144566564345, -7.443440444214356 ], [ 109.76568355573481, -7.4445184225553 ], [ 109.7678395124167, -7.445057411725771 ], [ 109.768378501587165, -7.446135390066714 ], [ 109.76945647992811, -7.446135390066714 ], [ 109.76945647992811, -7.446674379237186 ], [ 109.769995469098589, -7.446674379237186 ], [ 109.769995469098589, -7.447213368407658 ], [ 109.771073447439534, -7.447213368407658 ], [ 109.771073447439534, -7.447752357578129 ], [ 109.778080306655667, -7.447752357578129 ], [ 109.778080306655667, -7.448291346748602 ], [ 109.779697274167077, -7.448291346748602 ], [ 109.779697274167077, -7.448830335919073 ], [ 109.780775252508022, -7.448830335919073 ], [ 109.780775252508022, -7.449369325089545 ], [ 109.782392220019432, -7.449369325089545 ], [ 109.782392220019432, -7.449908314260016 ], [ 109.785087165871801, -7.449908314260016 ], [ 109.785087165871801, -7.450447303430488 ], [ 109.789399079235565, -7.450447303430488 ], [ 109.789399079235565, -7.449908314260016 ], [ 109.797483916792643, -7.449908314260016 ], [ 109.797483916792643, -7.450447303430488 ], [ 109.799100884304053, -7.450447303430488 ], [ 109.799100884304053, -7.45098629260096 ], [ 109.803412797667832, -7.45098629260096 ], [ 109.803412797667832, -7.450447303430488 ], [ 109.805029765179242, -7.450447303430488 ], [ 109.805029765179242, -7.449908314260016 ], [ 109.806107743520187, -7.449908314260016 ], [ 109.806107743520187, -7.449369325089545 ], [ 109.807724711031611, -7.449369325089545 ], [ 109.807724711031611, -7.448830335919073 ], [ 109.8136535919068, -7.448830335919073 ], [ 109.8136535919068, -7.449369325089545 ], [ 109.817426516100099, -7.449369325089545 ], [ 109.817426516100099, -7.448830335919073 ], [ 109.819043483611509, -7.448830335919073 ], [ 109.819043483611509, -7.448291346748602 ], [ 109.820121461952454, -7.448291346748602 ], [ 109.820121461952454, -7.448830335919073 ], [ 109.825511353657177, -7.448830335919073 ], [ 109.825511353657177, -7.448291346748602 ], [ 109.826589331998122, -7.448291346748602 ], [ 109.826589331998122, -7.447752357578129 ], [ 109.827128321168587, -7.447752357578129 ], [ 109.827128321168587, -7.445596400896243 ], [ 109.827667310339066, -7.445596400896243 ], [ 109.827667310339066, -7.4445184225553 ], [ 109.828206299509532, -7.4445184225553 ], [ 109.828206299509532, -7.442901455043884 ], [ 109.827128321168587, -7.442362465873412 ], [ 109.827128321168587, -7.441284487532469 ], [ 109.828206299509532, -7.440745498361998 ], [ 109.828206299509532, -7.439667520021054 ], [ 109.827667310339066, -7.439667520021054 ], [ 109.827667310339066, -7.43858954168011 ], [ 109.827128321168587, -7.43858954168011 ], [ 109.827128321168587, -7.438050552509639 ], [ 109.827667310339066, -7.438050552509639 ], [ 109.827667310339066, -7.436433584998223 ], [ 109.828206299509532, -7.436433584998223 ], [ 109.828206299509532, -7.435894595827752 ], [ 109.829823267020942, -7.435894595827752 ], [ 109.829823267020942, -7.43535560665728 ], [ 109.830362256191421, -7.43535560665728 ], [ 109.830362256191421, -7.433738639145865 ], [ 109.831440234532366, -7.433738639145865 ], [ 109.831440234532366, -7.432660660804921 ], [ 109.831979223702831, -7.432660660804921 ], [ 109.831979223702831, -7.424575823247846 ], [ 109.83251821287331, -7.424575823247846 ], [ 109.83251821287331, -7.423497844906902 ], [ 109.833057202043776, -7.423497844906902 ], [ 109.833057202043776, -7.422419866565959 ], [ 109.83251821287331, -7.422419866565959 ], [ 109.83251821287331, -7.421880877395488 ], [ 109.831440234532366, -7.421880877395488 ], [ 109.831440234532366, -7.421341888225015 ], [ 109.830901245361886, -7.421341888225015 ], [ 109.830901245361886, -7.421880877395488 ], [ 109.828745288679997, -7.421880877395488 ], [ 109.828745288679997, -7.420802899054544 ], [ 109.829284277850476, -7.420802899054544 ], [ 109.829823267020942, -7.4197249207136 ], [ 109.826589331998122, -7.4197249207136 ], [ 109.826589331998122, -7.420263909884072 ], [ 109.824972364486698, -7.420263909884072 ], [ 109.824972364486698, -7.420802899054544 ], [ 109.823894386145753, -7.420802899054544 ], [ 109.823894386145753, -7.421341888225015 ], [ 109.822277418634343, -7.421341888225015 ], [ 109.822277418634343, -7.420802899054544 ], [ 109.821199440293398, -7.420802899054544 ], [ 109.821199440293398, -7.4197249207136 ], [ 109.819582472781988, -7.418646942372657 ], [ 109.819582472781988, -7.417568964031713 ], [ 109.817965505270564, -7.41649098569077 ], [ 109.817426516100099, -7.415413007349827 ], [ 109.815270559418209, -7.415413007349827 ], [ 109.815270559418209, -7.414874018179355 ], [ 109.8136535919068, -7.414874018179355 ], [ 109.8136535919068, -7.414335029008884 ], [ 109.812036624395375, -7.414335029008884 ], [ 109.812036624395375, -7.413796039838411 ], [ 109.807724711031611, -7.413796039838411 ], [ 109.807724711031611, -7.41325705066794 ], [ 109.807185721861131, -7.41325705066794 ], [ 109.806646732690666, -7.412179072326996 ], [ 109.805568754349721, -7.411640083156525 ], [ 109.805568754349721, -7.411101093986053 ], [ 109.803951786838297, -7.411101093986053 ], [ 109.803412797667832, -7.412179072326996 ], [ 109.802873808497367, -7.412179072326996 ], [ 109.802873808497367, -7.411640083156525 ], [ 109.800178862644998, -7.411640083156525 ], [ 109.800178862644998, -7.411101093986053 ], [ 109.798022905963109, -7.411640083156525 ], [ 109.798022905963109, -7.411101093986053 ], [ 109.796944927622178, -7.411101093986053 ], [ 109.796944927622178, -7.410562104815582 ], [ 109.794788970940289, -7.410562104815582 ], [ 109.794249981769809, -7.411640083156525 ], [ 109.79209402508792, -7.411640083156525 ], [ 109.79209402508792, -7.411101093986053 ], [ 109.791555035917455, -7.411101093986053 ], [ 109.791555035917455, -7.409484126474638 ], [ 109.79047705757651, -7.408945137304166 ], [ 109.79047705757651, -7.408406148133694 ], [ 109.789399079235565, -7.408406148133694 ], [ 109.789399079235565, -7.407867158963223 ], [ 109.787243122553676, -7.407328169792751 ], [ 109.786704133383211, -7.406250191451807 ], [ 109.785626155042266, -7.406250191451807 ], [ 109.785626155042266, -7.405711202281336 ], [ 109.780236263337542, -7.406250191451807 ], [ 109.780236263337542, -7.403016256428978 ], [ 109.778619295826132, -7.401938278088034 ], [ 109.778619295826132, -7.401399288917562 ], [ 109.777541317485188, -7.401399288917562 ], [ 109.777002328314722, -7.400321310576619 ], [ 109.775924349973778, -7.400321310576619 ], [ 109.775924349973778, -7.399782321406147 ], [ 109.774307382462354, -7.399782321406147 ], [ 109.774307382462354, -7.399243332235676 ], [ 109.772690414950944, -7.399243332235676 ], [ 109.772690414950944, -7.398704343065203 ], [ 109.772151425780478, -7.398704343065203 ], [ 109.772151425780478, -7.397087375553788 ], [ 109.771612436609999, -7.397087375553788 ], [ 109.771073447439534, -7.396009397212845 ], [ 109.76945647992811, -7.396009397212845 ], [ 109.76945647992811, -7.395470408042374 ], [ 109.768378501587165, -7.395470408042374 ], [ 109.768378501587165, -7.393853440530958 ], [ 109.768917490757644, -7.393853440530958 ], [ 109.768378501587165, -7.392775462190015 ], [ 109.762449620711976, -7.392775462190015 ], [ 109.762449620711976, -7.392236473019543 ], [ 109.761371642371046, -7.392236473019543 ], [ 109.760293664030101, -7.390619505508128 ], [ 109.759215685689156, -7.390080516337656 ], [ 109.759215685689156, -7.389002537996713 ], [ 109.758137707348212, -7.389002537996713 ], [ 109.758137707348212, -7.388463548826241 ], [ 109.754903772325378, -7.388463548826241 ], [ 109.754903772325378, -7.389002537996713 ], [ 109.753286804813968, -7.389002537996713 ], [ 109.752747815643488, -7.390080516337656 ], [ 109.750591858961599, -7.390619505508128 ], [ 109.750591858961599, -7.390080516337656 ], [ 109.751130848132078, -7.390080516337656 ], [ 109.751130848132078, -7.388463548826241 ], [ 109.752208826473023, -7.38792455965577 ], [ 109.752747815643488, -7.385768602973882 ], [ 109.753286804813968, -7.385768602973882 ], [ 109.753286804813968, -7.384151635462468 ], [ 109.754903772325378, -7.384151635462468 ], [ 109.754903772325378, -7.384690624632939 ], [ 109.755442761495857, -7.384690624632939 ], [ 109.755442761495857, -7.385768602973882 ], [ 109.757598718177732, -7.385768602973882 ], [ 109.757598718177732, -7.385229613803411 ], [ 109.759215685689156, -7.385229613803411 ], [ 109.759215685689156, -7.385768602973882 ], [ 109.760293664030101, -7.385768602973882 ], [ 109.760293664030101, -7.386307592144354 ], [ 109.760832653200566, -7.386307592144354 ], [ 109.760832653200566, -7.385768602973882 ], [ 109.761910631541511, -7.385229613803411 ], [ 109.761910631541511, -7.384151635462468 ], [ 109.761371642371046, -7.384151635462468 ], [ 109.761371642371046, -7.382534667951052 ], [ 109.761910631541511, -7.382534667951052 ], [ 109.761910631541511, -7.383073657121524 ], [ 109.7640665882234, -7.383073657121524 ], [ 109.7640665882234, -7.382534667951052 ], [ 109.764605577393866, -7.382534667951052 ], [ 109.764605577393866, -7.379300732928222 ], [ 109.765144566564345, -7.379300732928222 ], [ 109.76568355573481, -7.378222754587278 ], [ 109.766761534075755, -7.378222754587278 ], [ 109.766761534075755, -7.376066797905391 ], [ 109.767300523246234, -7.376066797905391 ], [ 109.767300523246234, -7.374988819564448 ], [ 109.7678395124167, -7.374988819564448 ], [ 109.7678395124167, -7.373371852053033 ], [ 109.768378501587165, -7.373371852053033 ], [ 109.768378501587165, -7.371215895371146 ], [ 109.768917490757644, -7.371215895371146 ], [ 109.768917490757644, -7.370676906200675 ], [ 109.770534458269054, -7.370676906200675 ], [ 109.770534458269054, -7.370137917030203 ], [ 109.772151425780478, -7.370137917030203 ], [ 109.772151425780478, -7.369598927859731 ], [ 109.772690414950944, -7.369598927859731 ], [ 109.772690414950944, -7.366364992836901 ], [ 109.774307382462354, -7.365287014495958 ], [ 109.774307382462354, -7.364209036155014 ], [ 109.775385360803298, -7.364209036155014 ], [ 109.775385360803298, -7.363670046984542 ], [ 109.775924349973778, -7.363670046984542 ], [ 109.775924349973778, -7.364209036155014 ], [ 109.777541317485188, -7.364209036155014 ], [ 109.777541317485188, -7.364748025325485 ], [ 109.778619295826132, -7.364748025325485 ], [ 109.778619295826132, -7.365287014495958 ], [ 109.779697274167077, -7.365287014495958 ], [ 109.780236263337542, -7.364209036155014 ], [ 109.782392220019432, -7.363670046984542 ], [ 109.782392220019432, -7.363131057814071 ], [ 109.783470198360376, -7.362592068643599 ], [ 109.783470198360376, -7.35989712279124 ], [ 109.785087165871801, -7.35989712279124 ], [ 109.785626155042266, -7.358819144450297 ], [ 109.786165144212731, -7.358819144450297 ], [ 109.786165144212731, -7.357741166109354 ], [ 109.786704133383211, -7.357741166109354 ], [ 109.786704133383211, -7.355585209427467 ], [ 109.787243122553676, -7.355585209427467 ], [ 109.787243122553676, -7.355046220256995 ], [ 109.786704133383211, -7.355046220256995 ], [ 109.786704133383211, -7.353429252745579 ], [ 109.786165144212731, -7.353429252745579 ], [ 109.786165144212731, -7.350734306893221 ], [ 109.785626155042266, -7.350734306893221 ], [ 109.785626155042266, -7.349656328552277 ], [ 109.786165144212731, -7.349656328552277 ], [ 109.786165144212731, -7.346961382699919 ], [ 109.786704133383211, -7.346961382699919 ], [ 109.786704133383211, -7.345344415188504 ], [ 109.787243122553676, -7.345344415188504 ], [ 109.787243122553676, -7.342110480165673 ], [ 109.787782111724155, -7.342110480165673 ], [ 109.787782111724155, -7.34103250182473 ], [ 109.78832110089462, -7.34103250182473 ], [ 109.78832110089462, -7.340493512654259 ], [ 109.789938068406045, -7.340493512654259 ], [ 109.789938068406045, -7.339954523483787 ], [ 109.791016046746989, -7.339415534313315 ], [ 109.79209402508792, -7.3377985668019 ], [ 109.792633014258399, -7.3377985668019 ], [ 109.792633014258399, -7.337259577631428 ], [ 109.79209402508792, -7.337259577631428 ], [ 109.79209402508792, -7.334564631779069 ], [ 109.792633014258399, -7.334564631779069 ], [ 109.792633014258399, -7.332947664267655 ], [ 109.794788970940289, -7.331869685926711 ], [ 109.795327960110754, -7.329713729244824 ], [ 109.795866949281233, -7.329713729244824 ], [ 109.795866949281233, -7.328096761733409 ], [ 109.796405938451699, -7.328096761733409 ], [ 109.796405938451699, -7.327018783392465 ], [ 109.796944927622178, -7.327018783392465 ], [ 109.796944927622178, -7.326479794221994 ], [ 109.798022905963109, -7.326479794221994 ], [ 109.798022905963109, -7.325401815881051 ], [ 109.798561895133588, -7.325401815881051 ], [ 109.798561895133588, -7.324862826710579 ], [ 109.799639873474533, -7.324862826710579 ], [ 109.799639873474533, -7.324323837540107 ], [ 109.800717851815477, -7.324323837540107 ], [ 109.800717851815477, -7.324862826710579 ], [ 109.801795830156422, -7.324862826710579 ], [ 109.801795830156422, -7.325401815881051 ], [ 109.802334819326887, -7.325401815881051 ], [ 109.802334819326887, -7.324862826710579 ], [ 109.805029765179242, -7.324862826710579 ], [ 109.805568754349721, -7.323784848369636 ], [ 109.806646732690666, -7.323784848369636 ], [ 109.807185721861131, -7.322706870028692 ], [ 109.808802689372556, -7.321628891687749 ], [ 109.808802689372556, -7.317855967494447 ], [ 109.8098806677135, -7.317316978323975 ], [ 109.8098806677135, -7.315700010812559 ], [ 109.810419656883965, -7.315700010812559 ], [ 109.810419656883965, -7.315161021642088 ], [ 109.812575613565855, -7.315161021642088 ], [ 109.81311460273632, -7.314083043301145 ], [ 109.815270559418209, -7.313544054130673 ], [ 109.815270559418209, -7.310310119107843 ], [ 109.815809548588689, -7.310310119107843 ], [ 109.815809548588689, -7.309232140766899 ], [ 109.816887526929619, -7.308693151596428 ], [ 109.816887526929619, -7.308154162425955 ], [ 109.817426516100099, -7.308154162425955 ], [ 109.817965505270564, -7.307076184085012 ], [ 109.819043483611509, -7.306537194914541 ], [ 109.819043483611509, -7.305998205744069 ], [ 109.819582472781988, -7.305998205744069 ], [ 109.819043483611509, -7.304920227403126 ], [ 109.820660451122933, -7.304920227403126 ], [ 109.820660451122933, -7.303842249062182 ], [ 109.822277418634343, -7.303842249062182 ], [ 109.822277418634343, -7.30330325989171 ], [ 109.823355396975288, -7.303842249062182 ], [ 109.823355396975288, -7.302225281550767 ], [ 109.823894386145753, -7.302225281550767 ], [ 109.823894386145753, -7.301686292380295 ], [ 109.824972364486698, -7.301686292380295 ], [ 109.824972364486698, -7.302225281550767 ], [ 109.825511353657177, -7.302225281550767 ], [ 109.825511353657177, -7.301147303209824 ], [ 109.824972364486698, -7.301147303209824 ], [ 109.825511353657177, -7.298991346527937 ], [ 109.827128321168587, -7.298991346527937 ], [ 109.828206299509532, -7.297374379016522 ], [ 109.830362256191421, -7.297913368186993 ], [ 109.830362256191421, -7.296296400675578 ], [ 109.831440234532366, -7.296296400675578 ], [ 109.831440234532366, -7.294679433164163 ], [ 109.83251821287331, -7.294679433164163 ], [ 109.83251821287331, -7.295218422334635 ], [ 109.833596191214255, -7.294679433164163 ], [ 109.833596191214255, -7.293062465652747 ], [ 109.833057202043776, -7.293062465652747 ], [ 109.833057202043776, -7.292523476482276 ], [ 109.835213158725665, -7.291984487311804 ], [ 109.835213158725665, -7.290906508970861 ], [ 109.83575214789613, -7.290906508970861 ], [ 109.83575214789613, -7.287672573948031 ], [ 109.83790810457802, -7.287133584777559 ], [ 109.83790810457802, -7.286594595607087 ], [ 109.838447093748499, -7.286594595607087 ], [ 109.838447093748499, -7.285516617266144 ], [ 109.840064061259909, -7.286594595607087 ], [ 109.840064061259909, -7.284977628095672 ], [ 109.841681028771319, -7.283899649754729 ], [ 109.841681028771319, -7.28120470390237 ], [ 109.843297996282743, -7.28120470390237 ], [ 109.843297996282743, -7.280126725561427 ], [ 109.842759007112264, -7.280126725561427 ], [ 109.842759007112264, -7.278509758050012 ], [ 109.842220017941798, -7.278509758050012 ], [ 109.842220017941798, -7.276892790538597 ], [ 109.841681028771319, -7.276892790538597 ], [ 109.841681028771319, -7.275814812197653 ], [ 109.843297996282743, -7.275814812197653 ], [ 109.843836985453208, -7.27473683385671 ], [ 109.842759007112264, -7.27473683385671 ], [ 109.842220017941798, -7.273658855515766 ], [ 109.841681028771319, -7.273658855515766 ], [ 109.841681028771319, -7.272041888004351 ], [ 109.842759007112264, -7.272041888004351 ], [ 109.842759007112264, -7.270963909663408 ], [ 109.843836985453208, -7.271502898833879 ], [ 109.843836985453208, -7.270424920492936 ], [ 109.845453952964633, -7.269346942151993 ], [ 109.845453952964633, -7.267190985470106 ], [ 109.845992942135098, -7.267190985470106 ], [ 109.845992942135098, -7.265574017958691 ], [ 109.846531931305563, -7.265574017958691 ], [ 109.846531931305563, -7.263418061276804 ], [ 109.847070920476042, -7.263418061276804 ], [ 109.847070920476042, -7.261801093765389 ], [ 109.848687887987452, -7.260723115424445 ], [ 109.848687887987452, -7.258567158742558 ], [ 109.849226877157932, -7.258567158742558 ], [ 109.849765866328397, -7.255333223719728 ], [ 109.850304855498877, -7.255333223719728 ], [ 109.849765866328397, -7.251021310355954 ], [ 109.852460812180752, -7.251021310355954 ], [ 109.851921823010287, -7.248865353674067 ], [ 109.853538790521696, -7.247787375333124 ], [ 109.853538790521696, -7.245631418651237 ], [ 109.854616768862641, -7.245092429480765 ], [ 109.854616768862641, -7.240780516116992 ], [ 109.855155758033121, -7.240780516116992 ], [ 109.855155758033121, -7.24024152694652 ], [ 109.856233736374065, -7.24024152694652 ], [ 109.856233736374065, -7.239702537776048 ], [ 109.85731171471501, -7.239702537776048 ], [ 109.85731171471501, -7.238624559435105 ], [ 109.85892868222642, -7.237546581094161 ], [ 109.859467671396885, -7.236468602753218 ], [ 109.860006660567365, -7.236468602753218 ], [ 109.860006660567365, -7.235390624412275 ], [ 109.86054564973783, -7.235390624412275 ], [ 109.86054564973783, -7.234851635241803 ], [ 109.861623628078775, -7.234312646071331 ], [ 109.861623628078775, -7.232695678559916 ], [ 109.862162617249254, -7.232695678559916 ], [ 109.862162617249254, -7.232156689389444 ], [ 109.863240595590199, -7.232156689389444 ], [ 109.864318573931129, -7.230539721878029 ], [ 109.865935541442553, -7.230539721878029 ], [ 109.865935541442553, -7.230000732707557 ], [ 109.866474530613019, -7.230000732707557 ], [ 109.866474530613019, -7.230539721878029 ], [ 109.868091498124443, -7.230539721878029 ], [ 109.868091498124443, -7.229461743537086 ], [ 109.868630487294908, -7.229461743537086 ], [ 109.868630487294908, -7.228383765196142 ], [ 109.869169476465387, -7.228383765196142 ], [ 109.869169476465387, -7.227305786855199 ], [ 109.869708465635853, -7.227305786855199 ], [ 109.869708465635853, -7.226766797684727 ], [ 109.871864422317742, -7.227305786855199 ], [ 109.871864422317742, -7.226766797684727 ], [ 109.872942400658687, -7.226766797684727 ], [ 109.874020378999631, -7.225149830173312 ], [ 109.875637346511041, -7.225149830173312 ], [ 109.875637346511041, -7.225688819343784 ], [ 109.878332292363396, -7.225688819343784 ], [ 109.878332292363396, -7.225149830173312 ], [ 109.878871281533876, -7.225149830173312 ], [ 109.878871281533876, -7.225688819343784 ], [ 109.879410270704341, -7.225688819343784 ], [ 109.87994925987482, -7.22461084100284 ], [ 109.88156622738623, -7.22461084100284 ], [ 109.88210521655671, -7.225688819343784 ], [ 109.882644205727175, -7.225688819343784 ], [ 109.882644205727175, -7.225149830173312 ], [ 109.88318319489764, -7.225149830173312 ], [ 109.88318319489764, -7.225688819343784 ], [ 109.884261173238585, -7.225688819343784 ], [ 109.884261173238585, -7.225149830173312 ], [ 109.886956119090954, -7.225149830173312 ], [ 109.886956119090954, -7.22461084100284 ], [ 109.888034097431898, -7.22461084100284 ], [ 109.888573086602364, -7.223532862661897 ], [ 109.893423989136608, -7.223532862661897 ], [ 109.893423989136608, -7.224071851832369 ], [ 109.895579945818497, -7.224071851832369 ], [ 109.895579945818497, -7.223532862661897 ], [ 109.897735902500386, -7.223532862661897 ], [ 109.897735902500386, -7.222993873491425 ], [ 109.900430848352741, -7.222993873491425 ], [ 109.900969837523206, -7.221915895150482 ], [ 109.902047815864151, -7.221915895150482 ], [ 109.902047815864151, -7.22137690598001 ], [ 109.90420377254604, -7.22137690598001 ], [ 109.90420377254604, -7.221915895150482 ], [ 109.905820740057464, -7.221915895150482 ], [ 109.905820740057464, -7.22137690598001 ], [ 109.90635972922793, -7.22137690598001 ], [ 109.90635972922793, -7.221915895150482 ], [ 109.906898718398395, -7.221915895150482 ], [ 109.906898718398395, -7.219759938468595 ], [ 109.907437707568874, -7.219759938468595 ], [ 109.907437707568874, -7.218681960127651 ], [ 109.909593664250764, -7.21814297095718 ], [ 109.909593664250764, -7.216526003445765 ], [ 109.910671642591709, -7.215987014275293 ], [ 109.910671642591709, -7.215448025104821 ], [ 109.912288610103118, -7.215448025104821 ], [ 109.912288610103118, -7.214370046763878 ], [ 109.911749620932653, -7.214370046763878 ], [ 109.911749620932653, -7.212753079252463 ], [ 109.911210631762174, -7.212753079252463 ], [ 109.911210631762174, -7.211136111741047 ], [ 109.910671642591709, -7.211136111741047 ], [ 109.910671642591709, -7.209519144229632 ], [ 109.910132653421229, -7.209519144229632 ], [ 109.910132653421229, -7.208441165888689 ], [ 109.909593664250764, -7.208441165888689 ], [ 109.909593664250764, -7.204668241695387 ], [ 109.911210631762174, -7.203590263354443 ], [ 109.911210631762174, -7.200895317502085 ], [ 109.910671642591709, -7.200895317502085 ], [ 109.910671642591709, -7.199817339161141 ], [ 109.911749620932653, -7.199817339161141 ], [ 109.911749620932653, -7.19927834999067 ] ] ] } }
]
}
